,Hospital,State,City,LocalAddress,Pincode
0,A A Hospital,Tamilnadu,Hosur,Denkani Kottai Road Mathigiri,635110
1,A C Hospital,Tamilnadu,Chennai,"No-8, 3Rd Main Road, United India Nagar, Ayanavaram, Chennai-600023",600023
2,A-Care Orthopaedic & General Hospital,Maharashtra,Mumbai,"G-1, Giriraj Tower, Sai Baba Nagar, Mira Bhayander Road, Mira Road.",401107
3,A-One Hospital Pvt Ltd,Delhi,Delhi,"A-1/7, Panchim Vihar, Rohtak Road, New Delhi-110063",110063
4,A.B.Eye Institute,Bihar,Patna,"Road No.12, Rajendra Nagar, Patna, Bihar-800016",800016
5,A.C. Hospital,Tamilnadu,Salem,"201,2Nd Agraharam",636001
6,A.G. Eye Care Hospitals (U Nit Of Dr. A.G. Eye Hospitals Private Limited,Tamilnadu,Chennai,"No. 106, R.K. Mutt Road. Mylapore, Chennai, Tamilnadu",600004
7,A.G. Hospital,Tamilnadu,Coimbatore,"34, Kpn Colony 3Rd Street, Tirupur",641601
8,A.G. Padmavati'S Hospital Ltd.,Tamilnadu,Pondicherry,"R.S. No.127/A, Villianur Main Road, Arumparthapuram, Puducherry",605110
9,A.J. Hospital,Kerala,Trivandrum,"Kazhakuttam, P.O., Thiruvananthapuram, Trivandrum-695582",695582
10,A.J. Hospital & Research Centre,Karnataka,Mangalore,"Kuntikan, Mangalore, Dakshina Kannada-575004, Opp. Ksrtc Depot.Kuntikana",575004
11,A.K.G. Surgical Centre,Uttar Pradesh,Aligarh,"# 225, Avas Vikas Colony,Masoodabad Chouraha Gt Roadmasoodabad Chouraha,G.T.Road,",202001
12,A.M. Hospital,Karnataka,Bangalore,"# 20/1, 2Nd Cross, Widia Layout, Vijayanagar, Bangalore",560040
13,A.M. Hospital,Kerala,Cochin,"N.H. 47, Karunagapally",690518
14,A.N. Beach Hospital,Andhra Pradesh,Vizag,"15-9-13/24, Krishna Nagar,Near Beach Road, Visakhapatnam, Andhra Pradesh",530002
15,A.N.N Hospital,Tamilnadu,Chennai,"81-85,Annai Therasa Street,Valasaravakkam",600087
16,A.P.Hospital,Punjab,Amritsar,"Ajitnagar Chowk,Near Sultan Wind Water Tank",143001
17,A.P.Varkey Mission Hospital,Kerala,Ernakulam,Arakunnam P.O. Thottapady.,682313
18,A.R.Hospital Pvt Ltd,Tamilnadu,Madurai,"609, K.K.Nagar, Madurai-625020",625020
19,A.U.S. Clinic & Lithotripsy Centre,Maharashtra,Mumbai,"Arun Chambers, Tardeo, Mumbai-400034Tardeo",400034
20,A.V. Hospitals,Tamilnadu,Chennai,"# 172, Solaiappan Street, Tondirepet (North Chennai) Near Maharani Theatre",600021
21,A.V.Da Costa Hospital,Goa,Margao,"No.P-602,Fatorda,Next To Fatorda Stadium,Salcete,",403602
22,A.V.M. Hospital A.V.M.M. Associates (P) Ltd,Tamilnadu,Tuticorin,"# 135, Palayamkottai Roadtuticorin",628003
23,Aabu Tayshete Memorial Hospital,Maharashtra,Sindhudurga,"Behind Hotel Sahyadri Kankavlisindhudurga, Maharashtra.",416602
24,Aadhar Hospital,Karnataka,Belgaum,"Court Road,Chavatgalli",590002
25,Aadithya Adhikari Hospital,Karnataka,Mysore,"#417, Contour Road,3Rd Stage Gokulaum, Mysore-570002",570002
26,Aaditya Hospital,Maharashtra,Sangli,Main Chowk Vishrambag,416415
27,Aadya Ent Hospital,Gujarat,Ahmedabad,"Shivam Complex, Janata Chamber, Saijpur Tower.",380045
28,Aadya Eye Hospital,Gujarat,Ahmedabad,"Near Saijpur Tower, Janata Market.",380045
29,Aagman Hospital,Gujarat,Rajkot,Madhav Vatika Raiya Road.,360007
30,Aakar Hospital,Gujarat,Rajkot,"Virani School Chowk,Opp Punjab Bank,Ramkrishna Nagar Main Road,",360002
31,Aakash Eye Hospital,Gujarat,Mehsana,"A 19-20,Suraksha Society,Near B.Ed.College,Visnagar,Shivmarket",384315
32,Aakash Hospital,Delhi,Delhi,"90/43, Malviya Nagar, New Delhi",110017
33,Aakash Hospital,Tamilnadu,Chennai,"# 393/1, T.H. Road, (Annexe) 393/1, Tiruvottiyur.Tiruvallur",600019
34,Aakashdeep Hospital,Maharashtra,Koparkhairane,"# 98, Sector-7, Koperkhairna,Navi Mumbai-400709.",400709
35,Aalok Ortho Care,Gujarat,Ahmedabad,"#8, Vidhyavihar Colony, Opp Hotel Fortune Lankmark, Usmanpura, Ahmedabad, Gujarat",380014
36,Aarif Nursing Home,Andhra Pradesh,Vizag,"Lakshmi Street,Near Income Tax Office",530020
37,Aarogya Hospital (A Unit Of Kastura Medicos Limited,Uttar Pradesh,Vaishali,"Plot No-Nh-1, Sec-6, Vaishali, Ghaziabad, Uttar Pradesh",201010
38,Aarogyam Multispeciality Hospital,Maharashtra,Mumbai,"1St Floor, Renuka Bldg, Appo Mangala High School, Above Bank, Maharashtra, Mumbaimumbai",400603
39,Aarthi Hospital,Tamilnadu,Tirunelveli,"60,Santhaipettai Street",628502
40,Aarthy Eye Hospital,Tamilnadu,Karur,"#16, Sengunthapuram Main Road, Karur.",639002
41,Aaruni Hospital Pvt Ltd,Gujarat,Rajkot,"Next To Holy Saint School,Kalawad Road",360001
42,Aaryan Institute Of Medical Sciences,Gujarat,Kutch,"Navanaka,Mandvi,Near Opp Sawmi Narayana Mandir",370465
43,Aasha Hospitals,Andhra Pradesh,Ananthapur,"7-201,Court Road,Anantapur",515001
44,Aashirwad Hospital,Haryana,Gurgaon,"G-121, Oriental Villa, Sushant Lok-Iii, Sector-57.",125001
45,Aashirwad Hospital,Maharashtra,Thane,"Om Shraddha Tower, Above Tdcc Bank Pune Link Road, Tisgaon, Kalyan Est, Thane.",421306
46,Aashirwad Nursing Home,Maharashtra,Mumbai,"Ashirwad, Swami Samarth Nagar, 2Nd Cross Lane, Lokhandwala Complex, Andheri West",400053
47,Aashirwad Nursing Home & Iccu,Maharashtra,Mumbai,"A3, New Green Apartments,Tilak Chowk, Turel Pakhadi Roa",400064
48,Aashirwad Nursing Home (Heart And Diabetes Center),Delhi,New Delhi,"A-29/3, Lions Enclave, Marble Block, Vikas Nagar, Uttam Nagar, New Delhi-110059",110059
49,Aashlok Nursing Home Pvt Ltd,Delhi,Delhi,"#25A, Block-Ab, Community Centre,Safdarjung Enclave, Newdelhi-110029",110029
50,Aastha Eye Centre,Haryana,Faridabad,"5-R/5 N.I.T, Near Neelam Petrol Pump, Faridabad-121001",121001
51,Aastha Hospital,Delhi,Delhi,"L-2/50, New Mahavir Nagar Outer Ring Road Near Janakpuri Dist Centre",110018
52,Aastha Hospital,Maharashtra,Thane,"No.104,New Krishna Housing Society,Near Dhuri Motors,Ambadi Road,Vasai(W),Thane,",401202
53,Aastha Hospital,Maharashtra,Ulhasnagar,Hospital Area Ulhasnagar -3Thane,421003
54,Aastha Kidney & Multispecialty Hospital,Rajasthan,Sriganganagar,"2-D-1, Sukhadia Nagar, Sri Ganganagar, Rajasthan",335001
55,Aayush Eye Clinic,Maharashtra,Mumbai,"201, Coral Classic,20Th Road.",400071
56,Aayushmaan Hospital,Uttar Pradesh,Bijnor,Kiratpur Road,246701
57,Aayushman The Family Hospital,Andhra Pradesh,Kurnool,"D.No.45/145A1,Venkataramana Colony",518003
58,Abc Hospitals,Andhra Pradesh,Visakhapatnam,"#16-1-13, Kgh To Beach Down, Opp. Coastal Battery, Maharanipeta, Visakhapatnam, Visakha, Andhrapradesh-530002",530002
59,Abdul Khadir Hospital,Tamilnadu,Nagercoil,"Parakkai Road,Elankadai,Kottar",629002
60,Abha Nursing Home (P) Ltd,Uttar Pradesh,Kanpur,"10/503-B, Allengami, Kanpur",208002
61,Abhaya Critical Care,Andhra Pradesh,Vizag,"18-1-34, Opp. K.G.H. Gatemaharanipeta,",530002
62,Abhaya Emergency Centre Sri Hospitals,Andhra Pradesh,Rajamundry,"79-1-4/1, J.N. Road",533103
63,Abhaya Eye Hospital,Karnataka,Bangalore,"#77,Bsk 3Rd Stage, 100Ft Ring Road,5Th Block.",560085
64,Abhaya Hospital,Karnataka,Belthangady,"1-78D, Jainpeta, Belthangaby, Dakshina Kannada, Karnataka",574214
65,Abhaya Hospital (Neuropsychiatry & Critical Care Hospital Pvt Ltd),Karnataka,Bangalore,"17, Dr.M.H.Mari Gowda Road,Wilson Garden,Bangalore",560027
66,Abhaya- Bbc Children Hospital,Andhra Pradesh,Hyderabad,"Hindi Maha Vidyalaya Complex, O.U. Road, Vidya Nagar.",500044
67,Abhi Sai Hospitals,Andhra Pradesh,Miryalaguda,"Doctor'S Colony,Miryalguda",508207
68,Abhijay Hospital (P) Ltd.,Tamilnadu,Chennai,"No.22/2, E.S.I Hospital Road,Peravallur,",600011
69,Abhijit Hospital,Maharashtra,Mumbai,Divya Trusha Mamlatdar Wadiroad Malad (West),400064
70,Abhilash Hospital & Sara Rehabilitation Centre,Karnataka,Bangalore,"#271, 1Ooft Ring Road, 5Th Block,3Rd Phase, 3Rd Stage,Banashankri.",560085
71,Abhilasha Hospital,Punjab,Chandigarh,House No 201 Sector 35 A,160022
72,Abhinandan Hospital,Bihar,Patna,"0/60, Doctors Colony, Kankar Baga",800020
73,Abhinav Drishti Eye Hospital,Uttar Pradesh,Lucknow,"B-719, Sector-C, Mahanagar Lucknow",226006
74,Abhinav Multispeciality Hospital,Maharashtra,Nagpur,"Naya Nakasha, Lashkari Bagh.",440017
75,Abhiram Institute Of Medical Sciences,Andhra Pradesh,Nellore,"Opp Aps Rtc Depot, Atmakur, Nellore",524322
76,Abhishek Nethradhama,Karnataka,Bangalore,"Mosque Complex, Opp Rajkamar Talkies, Fort Road,",561203
77,Abhishek Nursing Home (L.P.Diagnostics Pvt. Ltd.),Maharashtra,Mumbai,"Jagruti Co-Op.Soci Bhatwadi,Ghatkopm- (W), Mumbai - 400084Near Maratha Mandir,Co-Op Bank",400084
78,Abinand Hospital,Tamilnadu,Coimbatore,"237-F/7, Pollachi Main Road,Sundarapuram, Coimbatore",641024
79,Abiraami Hospital,Tamilnadu,Cuddalore,"24-Alc,Campus,Manjakuppam",607001
80,Acchutha Eye Care,Tamilnadu,Erode,"#H-3, Evn Road, Permar Nagar, Near Surampatti Nall Road, Erode-638009",638009
81,Accident Fracture And Orthopedic Hospital,Gujarat,Gandhinagar,"Near Green Park Dunetha Road , Nani Daman, Gandhinagar, Gujarat-382010",382010
82,Ace Heart & Vascular Institute. (A Unit Of Prime Cardiac Care Pvt. Ltd.),Punjab,Mohali,"Sector-69,Shivalik Hospital",160055
83,Acharya Shri Chander College Of Medical Sciences & Hospital,Jammu & Kashmir,Jammu,"P.B # 5, Hpo Gandhi Nagar,Jammu-180017.",180017
84,Acharya Tulsi Jain Hospital,Karnataka,Bangalore,"Mom(M)W6-P-6,#22/2-1,6Th Cross,K.N Extension",560022
85,Acharya Vinoba Bhave Rural Hospital,Maharashtra,Wardha,"Yavatmal Road,Sawangi (Meghe)Wardha-442004.",442004
86,Achyut Pandit Hospital,Karnataka,Karwar,"Kumbeswar Temple Road,Kumta",581343
87,Action Cancer Hospital,Delhi,Delhi,"H-2/Fc-34,A4 Pashim Vihar",110063
88,Acura Health Care Pvt Ltd,Karnataka,Bangalore,"#435,18Th Main,Koramangala 6Th Block(Near Ndoor Stadium)",560095
89,Adarsh Hospital,Andhra Pradesh,Eastgodavari,"86-26-5, V.L. Puram Jn, M.S. Narayana Street, Rajahmundry-533107",533103
90,Adarsh Hospital,Gujarat,Surat,"16-23, Suryakiran Appartments,Ghoddod Road, Surat-395007.",395007
91,Adarsh Hospital,Maharashtra,Mumbai,"Meenakshi Apartments,C - Wing, 1St Floor, Marve Road,Maladmalad (W)",400064
92,Adarsh Hospital,Maharashtra,Pune,"Sn 11/12,Kondhwa Budruk,Near Katraj Khondwa Road,Near Kaveri Apartments",411048
93,Adarsh Nursing Home,Karnataka,Bellary,"Gopalswamy Road,Gandhinagar",583103
94,Adarsha Hospital,Karnataka,Kundapur,"# 274/Vi, N.H. # 17, Kundapura, Udapi-576201Udupi- 576201",576201
95,Adarsha Hospital Udupi,Karnataka,Udupi,"Near K.S.R.T.C Bus Stand, Udupi",576101
96,Adarsha Nethralayam,Andhra Pradesh,Warangal,"9-5-53, Mandibazar, Warangal, A.P",506002
97,Adarsha Nursing Home,Karnataka,Tumkur,Sharadadevi Nagaropp Mg Stadium,572103
98,Adavally Damodar Reddy Memorial Hospital,Andhra Pradesh,Himayatnagar,"3-97, Sharadanagar, Ramanthapur,Ranfa Reddy.",500013
99,Add Hospital Pvt Ltd,Orissa,Cuttack,Junus Patna College Square,753003
100,Adesh Hospital & Research Centre,Punjab,Muktsar,Kotkapura Road Sri Muktsar Sahibmuktsar,152026
101,Adichunchanagiri Hospital & Research,Karnataka,Mandya,"Balagangadharanatha Nagara, Nagamangala Taluk, Mandya Dist, Mandya-571448Nagamangala Taluk, Mandya Dist",571448
102,Adilakshmi Nursing Home,Andhra Pradesh,Guntur,"G.B.C. Raod, Ponnur.",522124
103,Adinath Hospital,Uttar Pradesh,Ghaziabad,Plot No 330 Gyan Khand 1 Indirapuram Ghaziabad,201010
104,Adithi Maternity And General Nursing Home,Karnataka,Bangalore,"#78,Omkarnagar, B.G. Road.",560076
105,Adithya Nursing Home,Karnataka,Ramanagaram,57 Opp Junior College Ramanagaram,571511
106,Adithya Speciality Hospital,Tamilnadu,Madurai,"277, G.S.T Main Road, Near Harveypatty Bus Stop, Thirunagar, Madurai - 625006",625006
107,Aditi Hosptial,Karnataka,Bangalore,"Gandhi Square Newpet,Anekal",562106
108,Aditi Medical Centre,Uttar Pradesh,Ghaziabad,"Sector-4, Plot No-117, Near Ramlila Ground.",201012
109,Adittya Eye Clinic,Maharashtra,Mumbai,"M.G.Road, Ronik Apts, 1St Floor,Kandival(W)",400067
110,Aditya Care Hospital,Orissa,Khurda,"329/1929(P),Chandrasekharpur,Khurdha",751014
111,Aditya Diagnostics & Hospitals (A Unit Of Dr. N. Sahewalla & Co Pvt. Ltd),Assam,Dibrugarh,"AMC Road, Bordoloi Avenue, Dibrugarl Dist, Assam-786005.",786005
112,Aditya Eye Clinic And Contact Lens Centre,Maharashtra,Pune,"Office # 1A,Kumar Plaza,M.G.Road,",411001
113,Aditya Eye Hospital,Kerala,Ernakulam,"Judge Mukku, Thrikkakara, Kochi-682021",682021
114,Aditya Health Research Foundation (P) Ltd,West Bengal,Kolkata,"965, Jessore Road, Dumdum,Kolkata",700055
115,Aditya Hospital,Andhra Pradesh,Hyderabad,"#4-1-16, Boggulakunta, Tilak Road, Adids, Hyderbad-500001Abids",500001
116,Aditya Hospital,Tamilnadu,Chennai,"No.7, Barnbay Road, Kilpauk, Chennai-600010",600010
117,Aditya Jyot Eye Hospital (P) Ltd.,Maharashtra,Mumbai,"Plot # 153,Mojar Parmeshwaranroad (Opp) Siws Collage Gate #",400031
118,Aditya Medical Park (A Unit Of Aditya Health Research Foundation Pvt Ltd),West Bengal,Kolkata,"Taki Road, Kadambagachi, Barasat, 24 Parganas (N)Barasat-700124",700124
119,Aditya Multi Care Hospital,Andhra Pradesh,Visakhapatnam,"18-1-33, Opp. K.G.H.O.P Gate, Aditya Medical Complex, Vishkhapatnam-530002",530002
120,Aditya Multispeciality Hospital,Andhra Pradesh,Warangal,"Opp: Police Parade Grounds,Hanamkanda,Kishanpura.",506001
121,Aditya Netralaya,Karnataka,Bangalore,"#244, 7Th Cross 6 Block 3 Puase 3Block Banashankari, Bangalore-560085",560085
122,Aditya Nursing Home,Andhra Pradesh,Kurnool,"No.1/541-135,Aas College Road,Adoni,",518302
123,Aditya Nursing Home,Madhya Pradesh,Indore,"#315, Usha Nagar Extension.",452009
124,Aditya Orthopaedic & Trauma Centre,Karnataka,Tumkur,"Sri Shivakumar Swamy Circle, Bh Raod Tumkur-2",572102
125,Aditya Orthopaedic Hospital,Gujarat,Ahmedabad,"#201,202,Aditya Plaza,Jodhpur Road,Satellite",380015
126,Adityaj Hospital,Punjab,Mohali,"S.C.O.18,(F.F),Phase-1,S.A.S,Nagar",160055
127,Adiva Hospital Pvt. Ltd.,Delhi,Delhi,C- 1/C Green Park Ext,110017
128,Adr Hospital,Andhra Pradesh,Hyderabad,"H.No. 4-112/1, Anand Bagh, Malkajgiri, Hyderabad-500047",500047
129,Advance Mother And Child Care Center,Punjab,Mohali,"#67, Kalgidhar Enclave, Near Shiv Mandir, Hdfc Bank, Baltana, Zirakpur, Mohali, Punjab",140604
130,"Advanced Neurology & Superspeciality Hospital, Jaipur",Rajasthan,Jaipur,"D-358, Brain Tower, Malviyanagar, Jaipur-302017",302017
131,Adventist Wockardt Heart Hospital,Gujarat,Surat,24 Athwalines Surat,395006
132,Adyar P.M. Hospital,Tamilnadu,Chennai,"# 58, L.B. Road, Adyar, Chennai-600020Chennai",600020
133,Aeinullah Eye Hospital,Karnataka,Bangalore,"#90, Austin Town Layout, Near B.D.A Shopping Complex.",560047
134,Agadi Hospital & Research Centre,Karnataka,Bangalore,"35, H Siddhaiah Road, Wilson Garden, Bangalore-560027Wilson Garden",560017
135,Agarwal Maternity & General Hospital,Maharashtra,Pune,"S/N.45/1,2 & 5,Sangarsh Chowk,Kharadi Road,Chandannagar,",411014
136,Agarwal Medical Centre,Delhi,Delhi,"E-234, Greater Kailash, Delhi-110048",110048
137,Agarwal Nursing Home,Haryana,Kurukshetra,"Salarpur Road, Kurukshetra, Haryana",136118
138,Agarwal Nursing Home,Maharashtra,Mumbai,"4Th Floor,Shanti Centre, Plot # 8,Sec-17,Vashi,Navi Mumbai,Vashi, Navi Mumbai-400703",400703
139,Agash Nursing Home,Tamilnadu,Chennai,"#234, G.S.T. Road, Chromepet",600044
140,Aggarwal Eye Hospital,Maharashtra,Mumbai,"No.102/5,Ketayan Mansion,Shahaji Raje Marg,Koldongri,Andheri(E),Sahaje Raje Marg, Koldongri,",400069
141,Aggarwal Medical Centre,Haryana,Faridabad,"Jiwan Nagar, Gaunchi, Sector-55. Haryana , Faridabad",121004
142,Aggarwal Nursing Home,Delhi,Delhi,"2528/192,Tri Nagar,Tota Ram Bazar",110035
143,Agile Hospital Pvt. Ltd,Assam,Guwahati,"Tripura Road, Jayanagar Chariali, Guwahati, Kamrup, Assam, Opposite Sbi, Iibm Branch.",781022
144,Agrawal Clinic Surgical & General Hospital With Icu,Maharashtra,Mumbai,"49, Daftary Road, Malad (East), Mumbai, Maharashtra, Opp. Subhash Lane.",400097
145,Agrawal Eye Hospital,Uttar Pradesh,Meerut,61 Shivaji Road Near Nas College,250001
146,Agrawal Eye Hospital,Maharashtra,Mumbai,"1St Floor, Maharaja Apartment, Opp. Tel. Exchange, S.V. Road, Malad (West) Mumbai-400064",400064
147,Agrawal Eye Institute,Delhi,Delhi,"A-235,Shivalik,Malviya Nagar",110017
148,Agrawal Hospital,Gujarat,Patan,"5Th Lane,First Floor,Kilachand Centre,Station Road",384265
149,Agrawal Hospital,Madhya Pradesh,Bhopal,"E-3/15, Opp Habibganj Railway Stn, Arera Colony, Bopal,Mp-462016",462016
150,Agrawal Hospital (A Unit Of Agrawal Institute Of Medical Sciences Pvt,Chattisgarh,Raipur,"Near Rajkumar College, G.E. Road.",492001
151,Agrawal Nursing Home,Maharashtra,Mumbai,"Bombay Market, St.Road, Bhayander West,Bhayander, Thane",401104
152,Ahalia Foundation Eye Hospital,Kerala,Palakkad,"1/1053, Elappully.",678557
153,Ahalya Nursing Home,Andhra Pradesh,Guntur,"Back Side Sivaayam Temple, Kothapet, Guntur, Andhra Pradesh-522002.",522002
154,Ahalyadevi Nursing Home,Andhra Pradesh,Nellore,"16-1-712, Near Nehru State, Trunk Road.",524003
155,Ahirkar Hospital,Maharashtra,Bhiwandi,"Near Ratan Cinema Narpoli,Bhiwandi,Thane",421302
156,Ahmed Hospital,Haryana,Gurgaon,"Sector-15,Part-2.",122001
157,Ahmed Hospitals,Jammu & Kashmir,Srinagar,"Gulshan Nagar,Byepass,Nowgam",190008
158,Ahooja Eye & Dental Institute,Haryana,Gurgaon,"560/1, Dayanand Coloney, New Railway Road",122001
159,Ahuja Nursing Home & Polyclinic,Maharashtra,Ulhasnagar,"Furniture Bazar,Ulhas Nagar,Dass Chambers,1St Floor",421002
160,Aisha Memorial Hospital (Tsunami Project Only),Kerala,Manacaud,"Paruthikuzhy, Manacaud",695009
161,Ajani Hospital,Gujarat,Patan,"Sidharaj Jaysingh Marg, Sidhpur",384151
162,Ajanta Hospital & Ivf Centre Pvt Ltd,Uttar Pradesh,Lucknow,"#765, Near Krishna Cinema, Kanpur Road, Alambagh.",226005
163,Ajay Hospital,Uttar Pradesh,Meerut,"Bhopal Vihar, Garh Road, (Near -Radha Govind Engineering College), Meerut, Uttar Pradesh",250004
164,Ajay Medical Centre,Karnataka,Chellakere,Near Bus Stand Chellakere,577522
165,Ajay Pratima Hospital,Uttar Pradesh,Bareilly,"57, Brijlok, Near Prem Nagar Dharam Kanta Bareilly",243005
166,Ajit Surgical & Maternity Home,Karnataka,Belgaum,"Chikkodi Road,Raibag",591317
167,Ajmer Hospital,Rajasthan,Ajmer,"# 158/X,Civil Lanes, Ajmer-305006.",305006
168,Ajwani Eye Hospital Pvt. Ltd.,Madhya Pradesh,Bhopal,"# 115, Berasia Road, Bh0Pal Sindhi Colony, Bhopal-462018",462018
169,Ak Hospital,Tamilnadu,Chennai,"360 Poonamallee High Road,Junction Of Ph Rd &",600029
170,Akanksha Maternity & Surgical Hospital,Maharashtra,Mumbai,"6, Manish Tower, Manish Nagar, J P Road, Ahdheri(W)J.P. Road, Andheri (W)",400053
171,Akansha Orthopedic Centre,Rajasthan,Kota,"5-A-2, Vigyan Nagar.",324005
172,Akar Hospital,Gujarat,Rajkot,"Ramkrishna Nagar Main Road, Virani School Chowk.",360002
173,Akilesh Orthopaedics Hospitals,Tamilnadu,Coimbatore,"95-97, Sasthiri Road, Rammagar.",641009
174,Akira Eye Hospital,Andhra Pradesh,Eastgodavari,"Aryapuram,Rajahmundry",533104
175,Akshar Eye Hospital,Gujarat,Ahmedabad,"Kandhari Apartment, Opp S.T. Work Shop,Patia, Naroda Road.",382340
176,Akshar Surgical Hospital,Gujarat,Ahmedabad,"2Nd Floor, Vidita Avenue, Near Jayhind,Char Rasta, Maninagar.",380008
177,Akshardeep Orthopaedic Hospital,Gujarat,Ahmedabad,"2Nd Floor, Shubh Complex, Near Rajasthan Hospital, Shahibaugnr. Rajasthan Hospital,",380004
178,Akshare Eye Foundation,Karnataka,Tumkur,"#6052 Railway Station Road,Opp Town Hall",572102
179,Akshay Eye Clinic,Maharashtra,Raigad,"#842,Mahatma Gandhi Road,Panvel",410206
180,Akshay Hospital,Chattisgarh,Korba,"M.P. Nagar,",495681
181,Akshay Hospital,Karnataka,Tumkur,"2Nd Cross, Ashoknagar",572102
182,Akshay Mallya Hospital,Karnataka,Bangalore,"Varthur Main Road,Marathalli",560037
183,Akshay Medical Foundation,Maharashtra,Pune,"204/G Ward,Mg Roadlonawala",410401
184,Akshaya Care Multi Speciality Hospital,Andhra Pradesh,Secunderabad,"#11-3-267/13, Near Raghava Gardens, Madhura Nagar, Srinivasanagar, Parsigutta,",500061
185,Akshaya Heart Hospital,Madhya Pradesh,Bhopal,"Rishi Nagar, Char Imli, Opp Ekant Park.Bhopal, Madhya Pradesh",462016
186,Akshaya Nethralaya,Karnataka,Bangalore,"#227/A,Vidyagiri Layout N Exit O Axis Bank Nagarbhavi Circle,Bangalore",560072
187,Akshaya Nursing Home,Karnataka,Kolar,"3Dr Cross Gowripet, Kolar",563101
188,Akshayjyot Eye Hospial,Maharashtra,Buldana,"Yashowardhan,Mutthe Layout.",443001
189,Akshi Eye Care Centre,Uttar Pradesh,Kanpur,"2/344-A, Azad Nagar,Kanpur-200002.",200002
190,Akshitha Hospitals,Andhra Pradesh,Shamshabad,"H.No.11-32/6,Mahavir Enclave Phase-Ii,Shashabad",501218
191,Al Salama Eye Hospital,Kerala,Kozhicode,Arayidathu Palam Jn By Pass Road Kozhikode,673004
192,Al Salama Eye Hospital Ltd,Kerala,Malapuram,"55/5,Hospital Road,Perinthalmanna,Malapuram",679322
193,Al Shifa Hospital Pvt Ltd,Kerala,Malapuram,"Pb No. 26, Ooty Road Perintalmannaooty Road",679322
194,Al-Arif Hospital,Kerala,Trivandrum,"Tc-48/659,Ambalathara,Poonthura Post,Near Milma Diary",695026
195,Alam Hospital & Research Centre,Jharkhand,Ranchi,"Booty Road, Bariatu.",834009
196,Alapati Nursing Home,Andhra Pradesh,Tenali,"Gopalreddy Street, Ganganammapet.",522201
197,Alatkar Hospital,Maharashtra,Pune,"Bhosale Garden,Opp 111 Bus Stop,Pune Solapur Road",411028
198,Alchemist Hospitals Ltd,Haryana,Panchkula,"Sector 21,Near Main Market",134112
199,Alchemist Institute Of Medical Science,Haryana,Gurgaon,Sector 53 Saraswatikunj Dlf Golf Course Road Gurgaon,122001
200,Alexander Eye Centre,Kerala,Cochin,"34/629A,A1,B,",682024
201,Alhat Nursing Home,Maharashtra,Pune,"Hira-Ratan Plaza,Pune Nashik Highway Pmt Chowk,Bhosari",411039
202,All Asia Medical Institute (A Unit Of Harsh Medical Centre Pvt Ltd).,West Bengal,Kolkata,8B Garcha First Lane,700019
203,Alled Hospital Limited (Tsunami Project Only),Kerala,Kunnamkulam,"2/333,Guruvayoor Road,",680521
204,Alliance Hospital,Uttar Pradesh,Varanasi,"C-20/1-73,Ramakant Nagar Colony, Varanasi, Uttar Pradesh",221010
205,Alluri Sitarama Raju Academy Of Medical Sciences,Andhra Pradesh,Eluru,"Malkapuram, Eluru Nh-5, Malkapuram.",534004
206,Almas Hospital,Kerala,Malapuram,"Changuvetty,Kottakal,Malappuram,",676503
207,Alok Hospital,Rajasthan,Kota,"1-A-5, Sheela Choudhary Road",324005
208,Alpha Ent Head And Neck Research Institute And Hospital,Kerala,Ernakulam,"Opp To Bsnl Tower,Deshabhimani Road,Kaloor,Ernakulam",682017
209,Alpha Medical Services (Pvt) Ltd,West Bengal,Kolkata,"21/1, Dobson Road Howrahmaulana Abul Kalam Azad Rd",711101
210,Alpha Medical Services Pvt Ltd,West Bengal,Kolkata,"#13, Lalalajpat Rai Sarani Elgin Road.",700020
211,Alpha Super Speciality Hospital,Andhra Pradesh,Hyderabad,"23-1-863. Bsides Mch Swimming Pool, Moghalpura.",500024
212,Alphonsa Hospital,Kerala,Ernakulam,"Chruch,Karukutty",683576
213,Alps Hospital (Max Hospital),Haryana,Gurgaon,"Block B, Sushant Lok Phase-1,Next To Park Plaza Hotel",122001
214,Altec Laser & Superspeciality Hospital,Punjab,Amritsar,B-2 Ranjit Avenue Amritsar,143001
215,Altius Healthcare Pvt Ltd,Delhi,Delhi,"A-6, Pushpanjali Enclave,Pitampurapithampura New Delhi",110034
216,Altius Healthcare Pvt Ltd,Delhi,Delhi,"#1,Gulshan Park, Main Rohtak Road, Mangloi-110041",110041
217,Alva Hospital Pvt Ltd,Tamilnadu,Pollachi,"74/A2, Meenkarai Road,Pollachi Coimbatore",642013
218,Amala Cancer Hospital & Research Centre,Kerala,Trichur,"Amalanagar, Trissur,Kerala-680555.",680555
219,Amar Leela Hospital (P) Ltd,Delhi,Delhi,"B-1/6, Janak Puri,Main Najafgarh Roadmain Najafgarh Road,",110058
220,Amar Medical & Research Centre,Rajasthan,Jaipur,"Kiran Path,Mansarover",302020
221,Amar Orthopaedic Hospital,Andhra Pradesh,Guntur,"13-2-12, 1St Line Gunturuvari Thota, Guntur-522001",522001
222,Amaravathi Hospital,Tamilnadu,Karur,"#74, Ramanujam Nagar, Kovai Road, Karur, Tamilnadu.",639002
223,Amaravathi Institute Of Medical Sciences Pvt Ltd,Andhra Pradesh,Guntur,"Old Club Road, Kothapeta.Oldclub Road Guntur",522001
224,Amarawati Hospital,Haryana,Gurgaon,"Saraswati Enclave Near Power House, Opp. Sec. 10A, Gurgaon-122001, Haryana",122001
225,Amardeep Eye Care,Kerala,Thiruvananthapuram,"Tc 5/608, Gnp.2, Nalini Vilas, Thiruvananthapuram, Kerala",695005
226,Amardeep Nursing Home,Maharashtra,Thane,"101 Ratna Tarang, Old Nagardas Road, Andheri (E)Old Nagardas Road,Andheri (E)",400069
227,Ambaa Hospitals,Andhra Pradesh,Hyderabad,"#9-1-29/23,Opp To Pratap Theatre,Lunger House",500008
228,Ambay Hospital,Uttar Pradesh,Ghaziabad,"1, Lajpat Nagar, Near St. Thomas School.",201005
229,Ambika Hospital,Maharashtra,Solapur,"Murarji Peth, Solapur-413002.",413002
230,Amee Deep Hospital,Gujarat,Baroda,"Gf-12, Narsinhadham Complex, Opp Sangam Bus Stop, Harni Road.",390022
231,American Oncology Institute (A Unit Of Cancer Treatment Services Hyderabad Pvt. Ltd.),Andhra Pradesh,Hyderabad,"No. 1-111/4/B/104, Flat No. B-104, Kondapur, Kothaguda Post, Hyderabad, Andhra Pradesh",500084
232,Amijeet Maternity Hospital,Gujarat,Ahmedabad,"A/4, Shantram Complex, Near Nirnaynagar Garnala.",382481
233,Amin Maternity And Nursing Home,Gujarat,Ahmedabad,"17, Manipushp Society, Opp:Sarathi-2, B/H Goyal Intercitynr. Surdhara Circle",380054
234,Amit Hospital,Orissa,Berhamapur,"Canal Street, Near Radhakrishna & Kuthari Temples Street,Berhampur",760001
235,Amit Jaggi Memorial Hospital,Uttar Pradesh,Agra,"Sector-1, Vibhav Nagar,Agra-282001.",282001
236,Amit Nursing Home,Delhi,Delhi,"A-3 Manak Vihar Ext,Tihar,Tihar",110018
237,Amma Children'S Hospital,Andhra Pradesh,Guntur,"No.137-7-109/D, Old Club Road, Gunturvari Thota, Guntur-522001",522001
238,Amma Hospital,Andhra Pradesh,Vijayawada,"9-64-2,Syed Gulab Street,Kothapet",520001
239,Amma Hospital,Karnataka,Anekal,"32/515,Near Sri Rama Temple",562106
240,Amma Hospital,Tamilnadu,Chennai,"# 1, Sowrastra Nagar7Th Street, Chennai",600094
241,Amma Hospital,Tamilnadu,Krishnagiri,"Bangalore Road, Hosur Town",635109
242,Ammayi Eye Hospital,Tamilnadu,Chennai,"New # 80, 7Th Avenue, Ashoknagar, Chennai-600083",600083
243,Amri Hospitals Ltd,West Bengal,Kolkata,"Jc 16 & 17, Salt Lake City, Sector - Iii, Annexe Build. Kb 24, Salt Lake City, Sector - Iii, Kolkata",700098
244,Amri Medical Center,West Bengal,Kolkata,"97A, Southern Avenue, Opp To Lake Stadium, Kolkata-700029",700029
245,Amrik Nethralaya,Karnataka,Bangalore,"#346, Hrbr 1St Kalyan Nagar,4Th Cross, 7Th B Main.",560043
246,Amrit Medicare Pvt Ltd,Tamilnadu,Chennai,"No.310,Mint Street,Near Sowcarpet, Chennai-600079",600079
247,Amritdhara Hospital Pvt Ltd,Haryana,Karnal,"Chaura Bazar,Near City Police Station",132001
248,Amritsar Hospital,Punjab,Amritsar,100 Ft Road East Mohan Nagar,143001
249,Amrut Hospital & Endoscopy Clinic,Maharashtra,Mumbai,"Dr. Rajendra Prasad Road, Tilak Nagar, Dombivali(E), Thane, Maharashtra",421201
250,Amruth Hospital,Karnataka,Davangere,"#1643, Opp:K.E.B.Office, Vidyarthi Bhavan, Davangere",577003
251,Amrutha Heart Hospital,Andhra Pradesh,Ongole,60 Feet Road Satyanarayanapuramsatyanarayanpuram,523002
252,Amrutha Hospital,Karnataka,Bangalore,# 1 Near Water Tank Jakkur Main Road Amruthahalli Bangalore 560092,560092
253,Amrutha Nursing Home,Andhra Pradesh,Karimnagar,"3-3-168,Savaran Street,Besides Civil Hospital,Karimnagar",505001
254,Amrutha Nursing Home Private Limited,Andhra Pradesh,Gajuwaka,"D.No.10-7-85,Kailash Nagar,Gajuwaka.Gajuwaka",530026
255,Amudha Poly Clinic And Hospital,Tamilnadu,Erode,"101,Athani Road,Sathyamangalam,Erode",638401
256,Amulya Jyoti Eye Foundation,West Bengal,Kolkata,"#105,Manoharpukur Road,",700029
257,Amulya Nursing Home,Andhra Pradesh,Guntur,"Guntur Road, Narasaraopet.",522601
258,Anadiyil Hospital,Kerala,Trivandrum,"Thekkummood Junction, Trivandrm.",695037
259,Anamay Eye Hospital,Gujarat,Ahmedabad,Off.C.G.Road Nr President Hotel Opp. Mahalya Builldingnavrangpura,380009
260,Anamaya Nursing Home,Maharashtra,Pune,"Sn48/1B/5-Gokulnagar,Katraj Kondhwa Road,Kondhawa Budruk",411048
261,Anand Eye Institute Private Limited,Andhra Pradesh,Hyderabad,"4Th Floor,Rata Tycoon,Tarnaka",500017
262,Anand Health Care Ltd,Delhi,Delhi,"21,Community Centre, Preet Viharpreet Vihar",110092
263,Anand Hospital,Delhi,Delhi,"B-52, New Krishna Park, Dholi Piao, Vikas Puri.",110018
264,Anand Hospital,Uttar Pradesh,Allahabad,"11/17 Kasturba Gandhi Marg , Up, Allahabad Muir Road",211001
265,Anand Hospital,Tamilnadu,Chennai,"201, Kamaraj Salai,Manali,Chennaimanali",600068
266,Anand Hospital,Maharashtra,Jamkhed,"Nagar Road, Near S.T Stand,Ahemdnagar",413201
267,Anand Hospital,Maharashtra,Pune,"Shrikrishnapalace,Sn 136,Near Malwadi Police Station Warje,Malwadi",411058
268,Anand Hospital,Maharashtra,Pune,"Balaji Tower,Mahatma Phule Chowke,Chakan",410501
269,Anand Hospital,Maharashtra,Pune,"Sector-26,Plot 113, Hutatma Chowk Pradhikaran, Nigdi Pune-411044",411044
270,Anand Hospital & Eye Centre,Rajasthan,Jaipur,"21, Bharat Mata Lane, Jamna Lal Bajaj Marg, C-Scheme, Jaipur-302001",302001
271,Anand Hospital & Navdeep Eye Centre,Haryana,Panipat,"No.105,Adarsh Nagar Near Head Post Office,",132103
272,Anand Hospital & Research Centre Pvt Ltd,Madhya Pradesh,Indore,"7, Sindhu Nagar, Bhanwarkua Main Road",452001
273,Anand Hospital (Multispeciality),Uttar Pradesh,Azamgarh,"Mukeriganj, Azamgarh, Uttar Pradesh",276001
274,Anand Hospitals,Tamilnadu,Tiruppur,"#97/54,Jg Nagar,2Nd Street,60 Feet Road,",641602
275,Anand Maternity & Nursing Home,Maharashtra,Mumbai,"Saregram Complex, New Link Rd,Dahison (E), Mumbai-400068.",400068
276,Anand Medical Centre,Haryana,Gurgaon,"# 171, Sector 56, Near Kendriya Vihar",122002
277,Anand Medical Foundation Subudh Hospital,Maharashtra,Pune,"145,Kothrod Near Shivaji Statue",411038
278,Anand Multispeciality Hospital,Gujarat,Ahmedabad,"Shubh Complex, Shahibuy, Near Rajsthan Hosptial.",380004
279,Anand Multispeciality Hospital,Gujarat,Ahmedabad,"N.H.8,Hirawati",382350
280,Anand Nirogdham Hospital Pvt Ltd,Uttar Pradesh,Meerut,"#A,1 Damodar Colony,Garh Road,",250004
281,Anand Nursing Home,Uttar Pradesh,Ghaziabad,"Kf-113, New Kavi Nagar.",201002
282,Anand Nursing Home,Maharashtra,Kolhapur,"#1758 B/1, Sakoli Corner, K Ward.",416012
283,Anand Nursing Home,Maharashtra,Mumbai,"Divya Sarjan, 1St Floor, 90 Ft Road, Ganesh Chowk,Charkop,Kandivali West",400067
284,Anand Surgical Hospital Ltd.,Gujarat,Ahmedabad,"5, Janta Chambers, Nr,Saijpur Towernr. Saijpur Tower",382345
285,Anandaloke Hospital & Neurosciences Centre,West Bengal,Siliguri,"2Nd Mile,Sevoke Road,",734001
286,Anande Hospital,Maharashtra,Pune,"Near Old R T O Office,Ramnagar, Chandrapur,Near Old R.T.O. Office.",442402
287,Anandlok Hospital,West Bengal,Kolkata,"Dk-713,Salt Lake City, Sector-Ii, Kolkata.",700091
288,Anandpara Surgical & General Hospital,Maharashtra,Mumbai,"Iqbal House, Rani Sati Marg Off.Pandit Socicitor Lane, Malad (East)Malad (E), Mumbai - 97",400097
289,Anandrishiji Hospital & Medical Research Centre,Maharashtra,Ahmednagar,"124, Anand Rishiji Marg",414001
290,Anant Nursing Home Pvt Ltd,Madhya Pradesh,Jabalpur,"Madan Mahal Station Road,Gate #3,Wright Town",482001
291,Anant Shree Hospital,Madhya Pradesh,Bhopal,"Indrapuri A- Sector, Opp. Bhel Gate # 1,Indrapuri",462021
292,Anantha Lakshmi Kidney & Multispeciality Hospital,Andhra Pradesh,Hyderabad,"H.No.3-9-10/4, Opp To Ramanathapur School, Ramanathapur, Hyderabad-500013",500013
293,Ananthapuri Hospital & Research Institute,Kerala,Trivandrum,"Tc 31/1424, Nh By Pass Road,Chacka ,Thirvvananthapuram,Kerala",695024
294,Ananya Hospital Pvt Ltd,Karnataka,Bangalore,"389/44, 19Th Main,Rajajinagarrajajinagar",560010
295,Anasuya Institute Of Medical Sciences,Andhra Pradesh,Nellore,"16/2/142,Hotel Venkataramana Lane,Pogathota",524001
296,Anbu Hospital,Tamilnadu,Madurai,"No.150/1,Kamarajar Salai,",625009
297,Anbu Hospital,Tamilnadu,Tanjore,"# 4,5, Lakshmivilas Street, Kumbakonam",612001
298,Andhra Hospitals,Andhra Pradesh,Vijayawada,"C.V.R Complex, Prakasamroad, Vijayawada",520002
299,Andhra Mahila Sabha,Tamilnadu,Chennai,"No.11 & 12, Dr.Durgabaideshmukh Road, R.A.Puram,",600028
300,Aneja Hospital & Nursing Home,Haryana,Ambala,"# 48, Mahesh Nagar Opp Water Tank",133001
301,Aneri Surgical & Neurosurgical Hospital,Gujarat,Ahmedabad,"1St Floor, Swami Narayan Complex.",380007
302,Angel Maternity & Nursing Home,West Bengal,Kolkata,"No.3,Komedan Bagan Lane,Near Jora Girja Corporation ,Garage On Ajc Bose Road,",700016
303,Anil Baghi Hospital,Punjab,Ferozepur,"Anil Baghi Road,Ferozepur City",152002
304,Anil Eye Hospital,Maharashtra,Mumbai,"1St Floor, Krishna Smirti, Phadke Road, Dombivli",421201
305,Anitha Nursing Home,Andhra Pradesh,Hyderabad,"No 9-1/3, Sri Ramanagara Colony, Near Uppal Bus Depot, Hyderabad-500098",500098
306,Anjakha Hospital,Tamilnadu,Kanchipuram,"#23,Medavakkam Main Road,Madipakkam",600091
307,Anjali Hospital,Gujarat,Nadiad,"Desai Vago,Nadiad",387001
308,Anjali Hospital,Maharashtra,Pune,#568-Dr.Ambedkar Chowk Opp Delux Cinema Pimpri,411017
309,Ankith Multispeciality Hospitals,Andhra Pradesh,Rangareddy,"Opp Bus Stand,Ibrahimpatnam,Sagar Road",501506
310,Ankur Hospital,Maharashtra,Mumbai,"1St Floor, Kalpatoru,Mathura Das Road,Kandivli (W)Mathuradas Rd, Kandivli (W)",400067
311,Ankur Maternity And Surgical Nursing Home,Maharashtra,Mumbai,"Shree Vijay Chs Ltd,Kanjur Marg East",400042
312,Ankur Nursing Home,Maharashtra,Thane,"Mohan Plaza, Main Road, Opposite Section, Ulhasnagar, Thane-421501",421501
313,Ankur Nursing Home & Pain Clinic,Maharashtra,Pune,"Ashirwad Complex Chindhwad Main Road, Bus Stop Kalewadi Road,Chinchwad",411033
314,Ankura Children'S Hospital ( A Unit Of Ankura Medical & Research Centre Pvt Ltd ),Andhra Pradesh,Kukatpally,"Near Geethejali School, 7Th Phase, Kphb Kukatpalli, Hyderabad",500072
315,Anmmol Orthovision,Maharashtra,Mumbai,"101-102,Manisha Heights,Balrajeshwar Road,Mulund West",400080
316,Annadaneshwara Hospital,Karnataka,Raichur,"Hahe Road, Sindhanur",584128
317,Annai Ent And Head & Neck Care Centre,Tamilnadu,Erode,"#12D,Palaniappa Street,Perundurai Road",638009
318,Annai Hospital,Tamilnadu,Kanyakumari,"5-82/1, Kurumbanai Road, Karungal, Kanyakumari, Tamilnadu",629157
319,Annai Velankanni Nursing Home,Tamilnadu,Tirunelveli,"Post Box No.107, Murugan Kurichi, Palayamkottai.",627002
320,Annamalai Hospital,Tamilnadu,Chennai,"# 27, Govindan Raod, West Mambalam, Near Srinivasa Theatre",600033
321,Annammal Hospital,Tamilnadu,Kuzhithurai,Kuzhithurai,629163
322,Annapoorna Hospital,Andhra Pradesh,Vizag,"47-9-32, 3Rd Lane, Dwarakanagar, Visakahpatnam-530016",530016
323,Annapoorna Orthopaedic & Speciality Hospital,Karnataka,Mysore,"#953, Kantaraj Urs Road, Lakshmipuram, Mysore-570004",570004
324,Annapurna Hospital,Karnataka,Chickmangalur,"K.M. Road, Chikmagalur",577101
325,Annapurna Hospital,Maharashtra,Kheda,"Mina Bazar,Kapadvanj City,",387620
326,Annapurna Laparoscopic Surgery And Trauma Care Center,Orissa,Bhubaneswar,"Plot No-2764/4805, Nageswar Tangi, Old Town, Bhubaneswar, Khurdur, Orissa",751002
327,Annapurna Multi Speciality Hospital,Karnataka,Gangavathi,"Sri Krishnadevaraya Marga-Gangavathi, Koppal Dist, Karnataka-583227, Near Bus Stand",583227
328,Annapurna Multispeciality Hospital,Andhra Pradesh,Gudivada,"10-165, Eluru Road, Gudivada, Krishna-521301, Opp.Bank Of Baroda",521301
329,Ano Surge Hospital & Research Centre,Gujarat,Patan,"Doctor House,Opp Shantaba Hall,Bus Station Road",384265
330,Ansari Hospital,Delhi,Delhi,"Rz-20F/B, Street No-6, Sagarpur Main.",110046
331,Ansuya General Hospital,Gujarat,Ahmedabad,"#4,Daxini Society,Maninagar",380008
332,Anu Hospital,Tamilnadu,Tanjore,"#69,Trichy Road,Very Near To Railway Station",613007
333,Anu Hospitals,Andhra Pradesh,Vijayawada,"33-18-1,Chalasani Venkata Krishwaiah Street Near Puspha Hotel, Krishna Suryaraopet",520002
334,Anuchandra Accident Hospital,Maharashtra,Baramati,"Geetai Building, Cinema Road,",413102
335,Anugraha Hospital,Karnataka,Bangalore,"No 18/2,1St Cross,M.C. Layout,Vijayanagar",560079
336,Anugraha Hospital,Karnataka,Davangere,"# 2698,2Nd Main,2Nd Cross,M.C. B Block",577004
337,Anugraha Nursing Home,Karnataka,Bangalore,"No 2,Vinayaka Circle, Palace Guttahalli Main Road, Bangalore-560003Circle Palace Guttahalli Main",560003
338,Anugrahaa Hospital,Karnataka,Bangalore,"55/3A, Govindana Setty Palya Road Konappana Agrahara Electronic City Infosysbangalore South Taluk",560100
339,Anuj Hospital,Haryana,Faridabad,"#2159 & 2161, Sector-16,Faridabad-121002.",121002
340,Anukrushna Hospitals,Andhra Pradesh,Hyderabad,"10-191/2, Vasanthapuri Colonymalkajgiri",500047
341,Anupam Jyoti Medical Centre,Uttar Pradesh,Noida,"C-38A, Rajat Vihar, Sector-62.",201301
342,Anupama Hospital,Andhra Pradesh,Hyderabad,"16-31/494 & 495, 6Th Phase, Kphb Colony,Kukatpally, Hyderabad-500072",500072
343,Anupama Maternity & Nursing Home,Maharashtra,Mumbai,"1/18, Jaykar Smruti,Aarey Road, Goregaon West.",400062
344,Anupama Surgical & Children Hospital,Andhra Pradesh,Vizag,"47-9-21, Dwarakanagar, Visakha Patnam",530016
345,Anuradha Hospital & Trauma Centre,Haryana,Faridabad,"D-635 60 Fit Road,Ballabhgarh",121004
346,Anuradha Nursing Home,Karnataka,Shimoga,"1St Cross, Raghavendra Extension, Thirthahalli.",577432
347,Anurag Nursing Home,Rajasthan,Jaipur,"60/181,Heerapath,Mansarower",302020
348,Anusha Hospital,Andhra Pradesh,Hyderabad,"12-2-454,Gudi Malkapur,Mehdipatnam",500028
349,Anvitha Hospital,Andhra Pradesh,Hyderabad,"8-3-23A/A/516,517,A-Block Sri Keishna Nagar,Yousufguda",500045
350,Anwar Memorial Hospital,Kerala,Aluva,"Santhosh Lane, Aluva,Ernakulam Dist.",683101
351,Aparna Hospital,Tamilnadu,Coimbatore,"450-D,Palaghat Main Road,Kuniamuthu",641008
352,Aparna Hospitals Pvt Ltd,Andhra Pradesh,Warangal,"#2-5-680,Subedari,Hanamkonda",506001
353,Apex Citi Hospital (A Unit Of Siddhartha Healthcare Pvt Ltd.),Delhi,Delhi,"D-440, West Vinod Nagar, Hanuman Road, I.P. Extension, Delhi-110092, Near Punjab National Bank",110092
354,Apex Hospital,Punjab,Mohali,"Scf-43,44,Ph 3B-2",160060
355,Apex Hospital,Andhra Pradesh,Rajamundry,"75-6-23, Prakash Nagar,East Godavari, Rajamundry.",533103
356,Apex Hospital,Karnataka,Bidar,"Opp Ganesh Maidan, Bidar, Karnataka",585407
357,Apex Hospital,Madhya Pradesh,Gwalior,"#34,Tagore Nagar,Gwalior",474011
358,Apex Hospital,Maharashtra,Mumbai,"A-Wing, Vaishali Heights, Chandavarkar Road, Borivali (W), Mumbai-400092",400092
359,Apex Hospital,Maharashtra,Mumbai,"Gupte Road, Opp.Shivsena Shakha",421202
360,Apex Hospital,Maharashtra,Mumbai,"Parnaka, Shivtirth, Apt. Ground Floor, Kalyan, Thane, Maharashtra.",421301
361,Apex Hospital & Trauma Centre,Haryana,Rewari,"Plot No 5, Sector 6, Dharuhera, Rewari, Haryana",123106
362,Apex Hospital (P) Ltd,Rajasthan,Jaipur,"Sp 4 & 6 , Mia, Malviya Nagar ,Industrial Area, Jaipur",302017
363,Apex Hospital (Steel City Critical Care Pvt Ltd),Andhra Pradesh,Vizag,"16-1-5, Coastal Battery Road, Maharanipeta",530002
364,Apex Institute Of Medical Sciences.,West Bengal,Kolkata,"1219, Survey Park, Santoshpur, Kolkata-700075. Hi-Land Park, Big Bazar",700075
365,Apex Kidney Care Pvt Ltd,Maharashtra,Mira Road,"101, Eden Rose Shopping Complex,Opp. Cinemax Multiplex,Beverly Park, Mira Road (E),Thane",401107
366,Apex Kidney Care Pvt Ltd,Maharashtra,Mumbai,"''Gaurav Plaza, Annex, R.R.T. Road, Mulund (W), Mumbai",400080
367,Apex Kidney Care Pvt Ltd,Maharashtra,Mumbai,"C/O. Sushrut Hospital, 2Nd Fllor, Swastik Park, Near Kach Gujar Hall, Chembur (E). Mumbai",400071
368,Apex Kidney Care Pvt Ltd,Maharashtra,Mumbai,"Abhishek Commericial Complex, 3Rd Floor S.V. Road, Malad, Near Aditi Hotel, Mumbai, Maharashtra.",400064
369,Apex Research Centre & Hospital Pvt Ltd,Madhya Pradesh,Bhopal,"116-117, Sindhi Colony, Berasia Road,",462001
370,Apex Welcare Pvt Ltd ( Apex Hosptial),Uttar Pradesh,Varanasi,"Near Dlw & Hydil, Varanasi-221004",221004
371,Apollo B.G.S Hospitals,Karnataka,Mysore,Adichunchanagiri Roadkuvempunagar Road,570023
372,Apollo Emergency & Clinic,Andhra Pradesh,Hyderabad,16-2-705/5/5Malakpet,500036
373,Apollo Emergency & Clinic,Andhra Pradesh,Hyderabad,"Opp Sai Baba Temple, Bhagyanagar Colony,Kukkatpally Housing Board",500072
374,Apollo Emergency & Clinic,Andhra Pradesh,Hyderabad,"Mehdipatnam, Meeraj Complex, Hyderabad-500028",500028
375,Apollo Emergency Hospital,Andhra Pradesh,Hyderabad,"3-5-836 Hyderguda, Hyderabad 500029",500029
376,Apollo First Med Hospitals,Tamilnadu,Chennai,"No 154, Poonamallee High Road, Near Neyveli House, Kilpauk, Chennai - 6000No 154, Poonamallee High Road, Near Neyveli House, Kilpauk, Chennai - 6000",600010
377,Apollo Gleneagles Hospitals Ltd.,West Bengal,Kolkata,"58, Canal Circular Road,Kolkatta-700054",700054
378,Apollo Hospital,Andhra Pradesh,Secunderabad,"Vikrampuri Colony, Rajivi Gandhi Marg, Kharkhana.",500003
379,Apollo Hospital ( T.H.Road-Chennai),Tamilnadu,Chennai,"#645, T.H.Road, Tondiarpet",600081
380,Apollo Hospital (Kakinada),Andhra Pradesh,Eastgodavari,"13-1-3, Main Road, Kakinada - 533001",533001
381,Apollo Hospital International Ltd,Gujarat,Gandhinagar,"Plot No.1A, Gidc Estate-Bhat, Gandhinagar-382428",382428
382,Apollo Hospital- Basheerbagh,Andhra Pradesh,Hyderabad,"Skylane Theatre Lane, Basheerbagh, Hyderabad-500016Basheerbagh",500016
383,Apollo Hospitals,Andhra Pradesh,Hyderabad,"Jubilee Hills, Hyderabad-500033",500033
384,Apollo Hospitals,Andhra Pradesh,Secunderabad,#9-1-87/1 Next To Keys High School St. Johns Road,500003
385,Apollo Hospitals,Andhra Pradesh,Vizag,"Waltair Main Road, Vishakapatnam-530002",530017
386,Apollo Hospitals,Karnataka,Bangalore,"No.154/11,Opp To Iimb,Bannerghatta Road,",560076
387,Apollo Hospitals (Greams Road-Chennai),Tamilnadu,Chennai,"#21, Greams Lane,Greams Road, Chennai-600006",600006
388,Apollo Hospitals Bilaspur,Chattisgarh,Bilaspur,"Seepat Road,Bilaspur(C.G)",495006
389,Apollo Hospitals Enterprise Ltd,Orissa,Khurda,"Plt # 251,Sainik School Road,",751005
390,Apollo Hospitals Enterprise Ltd,Andhra Pradesh,Hyderabad,"Dmrl Cross Road, Santhosh Nagar,Kanchanbag, Hyderabad -500058",500058
391,Apollo Hospitals Karaikudi,Tamilnadu,Karaikudi,"Madurai Main Road, Managiri Village Karaikodi, Tamilnadu-630307, Near, Chettinad Public School",630307
392,Apollo Koramangala Cradle Limited,Karnataka,Bangalore,"#25. 46Th Cross, 5Th Block, Jayanagar, Bangalore, Karnataka",560011
393,Apollo Koramangla Cradle Limited,Karnataka,Bangalore,"No.58, 5Th Cross, 18Th Main Koramangla, 6Th Block, Bangalore, Karnataka.",560095
394,Apollo Nursing Home,Andhra Pradesh,Karimnagar,"H.No.3-3-111,Sawaran Street,Civil Hospital Road",505001
395,Apollo Speciality Hospital (Chennai),Tamilnadu,Chennai,"No 320 5Th Floor, Padma Complex, Anna Salai, Near Lr Swami Building, Nandanam, Chennai, Tamil Nadu",600035
396,Apollo Speciality Hospital (Madurai),Tamilnadu,Madurai,"20,Lake View, Kk Nagar,",625020
397,Apollo Victor Hospital,Goa,Margao,"Malbhat, Margao, South Goa, Salcetemargao",403601
398,Apolo Hospital,Punjab,Amritsar,"#2509/3,Bhushanpura,Inside Suctan Wind Gate",143001
399,Apoorva Health Services Pvt Ltd,Andhra Pradesh,Vizag,"50-17-62, Rajendranagar, Visakhapatnam-530016",530016
400,Apoorva Hospital,Andhra Pradesh,Hyderabad,"46/A, Santoshnagar Colony,Mehdipatnam, Hyderabad-500028",500028
401,Apoorva Hospital,Karnataka,Davangere,"3Rd Main Road, 9Th Cross, J.P. Extention.",577002
402,Apoorva Multispeiality Hospital,Karnataka,Belgaum,"Shreem 4889/90, Off Dr S P M Road, Near Prakash Theatre, Shastrinagar, Belgum- 590002",590002
403,Appasamy Medicare Centre Pvt Ltd,Tamilnadu,Chennai,"23-25, Friends Avenue, Arumbakkam, Chennaiarumbakkam",600106
404,Apple Hospital,Andhra Pradesh,Hyderabad,"Plot # 266,Vivekanandanagar Colony,Kukatpally",500072
405,Apple Hospital,Karnataka,Bangalore,#32 Maruthi Complex M S Nagar Bus Stop Banaswadi Main Road Bangalore,560033
406,Appollo Medical Invstgations & Appollo Nursing Home,Madhya Pradesh,Indore,"# 584, M.G. Road, New Palasiaindore",452001
407,Appusami Hospital,Tamilnadu,Salem,"# 8Z/A, Gandhi Road,Salem-636007.",636007
408,Apulki Vairagade Multispeciality Hospital,Maharashtra,Nagpur,"Manewada Cement Road,Plot # 151,Opp To Navdurga Mandir",440024
409,Arasan Eye Hospital,Tamilnadu,Erode,"#26, Annamalai Layout,Opp To Road Theatre",638011
410,Aravali Hospital,Rajasthan,Udaipur,"# 332, Ambamata Schemeudaipur, Rajasthan",313004
411,Aravind Eye Hospital (Salem),Tamilnadu,Salem,"64, Sankagiri Main Road, Nethimedu, Salem, Tamilnadu-636002, Opposite To Kaliamman Temple",636002
412,Aravind Eye Hospital - Coimbatore,Tamilnadu,Coimbatore,"Avanashi Road, Coimbatore-641014Teelametu",641014
413,Aravind Eye Hospital - Pondicherry,Tamilnadu,Pondicherry,"Cuddalore Main Road,Abishekapakkam Post,Thavalakuppam, Pondicherry-605007Thavalakuppam",605007
414,Aravind Eye Hospital - Theni,Tamilnadu,Theni,"371,Periakulam Road,Allinagaram",625531
415,Aravind Eye Hospital - Tirunelveli,Tamilnadu,Tirunelveli,# 1. S.N. High Road,627001
416,Aravind Eye Hospital Private Limited,Andhra Pradesh,Hyderabad,"# 12-2-824/A/1, Santosh Nagar Colony, Opp:St.Ann'S Womens College, Mehdipatnam. Hyderabad-500028",500028
417,Aravind Eye Hospital- Madhurai,Tamilnadu,Madurai,"1- Anna Nagar, Madurai-625020Madhurai",625020
418,Aravind Eye Hospital-Tirupur,Tamilnadu,Tirupur,"Dharapuram Main Road, K. Chettipalayam, Tirupur, Tamilnadu",641608
419,Aravind Multispeciality Hospital,Andhra Pradesh,Hyderabad,Opp Police Station Hayata Nagar Opp Police Station,501505
420,Aravind Nethralaya Meenakshi Hospital,Andhra Pradesh,Nellore,"16-2-269, Swathantra Park Street,Near Saibaba Temple, Gandhi Nagar,Nellore",524001
421,Aravind Sai Eye Hospital,Tamilnadu,Chennai,"# 1, Ganesan Street,Pammal Main Road Krishna Nagar",600075
422,Aravinda Hospital,Karnataka,Mysore,"#644,4Th Main, Aravinda Nagar,",570023
423,Aravindam Orthopaedic And Physiotherapy Centre,Andhra Pradesh,Rajamundry,"D.No-6-18-3, Kokkondavari Street, T Nagar.Rajahundry-1",533101
424,Archana Hospital,Rajasthan,Jaipur,"Airport Circlr, Sanganer",302011
425,Archana Hospital,Andhra Pradesh,Himayatnagar,Ram Nagar,560048
426,Archana Hospital,Karnataka,Mandya,"K.R. Road, Ashok Nagar, Mandya-571401Mandya",571401
427,Argade Hospital & Maternity Home,Maharashtra,Pune,"Pune-Nashik Highway,Ambethan Chawk,Chakan Talkhed",410501
428,Arihant Fracture & Orthopaedic Hospital,Gujarat,Ahmedabad,"Upnishad, 1St Floor, Near Shreyas Rly Crossing. Ambavadi.",380015
429,Arihant Heart & Medical Hospital,Gujarat,Ahmedabad,"S-15, Shubh Complex,2Nd Floor, Nr.Rajasthan Hospitalrajasthan Hosp. Road,",380004
430,Arihant Heart Clinic,Maharashtra,Mumbai,"103, Lancelot, Next To Dattani Nagar, S V Road Borivali(West)S.V.Road, Borivili (W),",400092
431,Arihant Hospital,Haryana,Gurgaon,"Hno-122,Block-G,Oriental Villa,Sector-57",122002
432,Arihant Hospital & Research Centre,Madhya Pradesh,Indore,"283-A, Gumasta Nagar",452009
433,Ark Nursing Home,Tamilnadu,Krishnagiri,"29-A, 4Th Cross,Co Operative Colony Near Employment Officeco-Ops Colony",635001
434,Arneja Institute Of Cardialogy Pvt Ltd,Maharashtra,Nagpur,"123, Ramdaspeth Behind Somalwar School",440010
435,Arogyadham,Uttar Pradesh,Bareilly,"B-51, Rajendranagar",243122
436,Arogyalayam Hospital,Kerala,Aluva,"Arogayalayam Junction, By-Pass, Aluva, Ernakulam, Kerala-683101",683101
437,Arogyam Superspeciality Hospital,Maharashtra,Nagpur,"#34, Sita Nagar Wardha Road Opp Green Wally Lawns",440025
438,Arogyaseva Medical Academy Of India,Maharashtra,Pune,"32/2A,Erandwanabehind Mehendale Garage",411004
439,Arokya Hospital,Tamilnadu,Chennai,"#32, Pillayar Koil Street",600078
440,Arora Hospital,Punjab,Amritsar,G T Roa Chheharta Amritsar-143005,143005
441,Arora Hospital(P) Ltd,Rajasthan,Bharatpur,"# 42, Krishnanagar,Bharatpur,",321001
442,Arpan General Hospital,Maharashtra,Mumbai,"Arpan Shopping Arcade, 1St Floor, C.S.T. Road, Kurla West.",400070
443,Arpan Hospital And Research Center,Madhya Pradesh,Indore,"15/2, Imli Bazar Near Rajnadaindore ( M.P )",452004
444,Arpan Maternity Hospital & Endoscopy Centre,Gujarat,Porbandar,"Uganda Road, Porbandar, Near Railway Station",360575
445,Artemis Medicare Services Ltd,Haryana,Gurgaon,"Sector-51,",122001
446,Arthroscopy & Spinal Endoscopy Centre,Punjab,Chandigarh,"Sco66, Sector 20C, Chandigarh-160020",160020
447,Arthur Astrvatham Hospital,Tamilnadu,Madurai,"No.42-A,Kuruvikaran Salai,",625020
448,Arul Hospital,Tamilnadu,Trichy,"#6A,T.V.K.Nagar,Puthur",620017
449,Arul Mission Hospital,Tamilnadu,Tirunelveli,"7A1 & 2,North Main Road,Vallioor",627117
450,Arumana Hospital,Kerala,Trivandrum,Perunthanni,695008
451,Arun Hospital,Tamilnadu,Madurai,"#186,Munichalai Road,",625009
452,Arun Hospital (Pollachi),Tamilnadu,Pollachi,"49/84, New Scheme Roadpollachi Coimbatore",642002
453,Arun Hospital (Theni),Tamilnadu,Theni,"51, Uthamapalayam Road,Bus Stand Bodinayakanur",625513
454,Arun Kidney Centre,Andhra Pradesh,Vijayawada,"#29-23-9,Tadepallivani Street,Suryaraopet",520002
455,Aruna Aspatal,Rajasthan,Chittorgarh,"#16, Rajeev Coloni, Meera Market, Chittorgarh, Rajasthan",312001
456,Aruna Hospital,Karnataka,Tumkur,"Dr.Radhakrishan Road, Tumkur",572102
457,Aruna Shakti Nursing Home,Orissa,Sambalpur,A.N. Guha Lane,768001
458,Arunn Surgery,Tamilnadu,Coimbatore,"Dr.Nanjappa Road,",641018
459,Arunodaya Deseret Eye Hospital,Haryana,Gurgaon,"# Nh 4, Sector-55, Gurgaon, Haryana",122003
460,Arunodaya Health Care,West Bengal,Hooghly,"Lichubagan, Po-Garalgacha,P.S-Dankuni.",712708
461,Arunodaya Hospitals,Karnataka,Bangalore,"# 18-23,4Th And 5Th Cross Mallasandra Main Road",560057
462,Arunpriya Nursing Home,Tamilnadu,Nagapattanam,"3&4, Pattamangalam Street,Nagapattinam",609001
463,Arushi Medical Centre,Uttar Pradesh,Lucknow,"B-1/31, Sector-K, Aliganj, Lucknow - 226024",226022
464,Arvind Hospital Pvt Ltd,Bihar,Patna,"Ashok Rajpath,Opp.Pmch,",800004
465,Arvinth Hospital,Tamilnadu,Namakkal,"# 17, Rangar Sannathi Street,Namakkal- 637001",637001
466,Arya Hospital,Delhi,Delhi,"C-1/101.Pankha Road,Janak Puri,New Delhi West,",110058
467,Arya Hospital Pvt Ltd,Punjab,Chandigarh,"Sco-801, Manimajra",160101
468,Arya Medical Centre,Karnataka,Ankola,Dinkar Desai Road.,581314
469,Asarfi Hospital Pvt Ltd,Jharkhand,Dhanbad,"At Baramuri Po,Bishanpur,Dhanbad",828130
470,Asg Eye Hospital Ltd-Jaipur,Rajasthan,Jaipur,"D-247, Bihari Marg, Bani Park, Opp. K.P. Auto, Jaipur, Rajasthan",302005
471,Asg Eye Hospital Ltd-Jodhpur,Rajasthan,Jodhpur,"A-322, Shastri Nagar, Jodhpur, Rajasthan",342003
472,Asha Hospital,Andhra Pradesh,Hyderabad,"H.No.19-66/11,Prashanagar Phase Ii,Behind Spencers, Hitention Road,Kapra",500062
473,Asha Hospital,Maharashtra,Mumbai,"# 1, Akurli Cross Road, Kandivli East,Premaskram Manidr Lane,",400101
474,Asha Hospital,Maharashtra,Nagpur,"#7,Near Lekhanagar,Cantonment,Kamptee",441001
475,Asha Hospital& Iccu,Maharashtra,Mumbai,"Plot # 134,Sect 4, Aniatic Society, Airoli,Navi Mumbai-400708",400708
476,Asha Maternity & Childrens Hospital,Maharashtra,Jalgaon,"Ganesh Raod, Chalishoon Dist,",424101
477,Asha Maternity & General Hospital,Maharashtra,Mumbai,"Pooja Building, Pushpa Park, Daftary Road, Malad East.",400097
478,Asha Orthopaedic Hospital,Maharashtra,Mumbai,"Bashi Kalingar,#2,Geetha Bhavan Lane Off,Navghar Road,Bhayander East,Thane",401105
479,Asha Polyclinic & Shetal Nursing Home,Maharashtra,Mumbai,"145, 60 Feet Road,Opp.Uti Bank,Ghatkopar(E)-400077Chatkopur (E), Mumbai - 400077",400077
480,Ashirvad Hospital,Karnataka,Chickmangalur,"Rathnagiri Road,",577101
481,Ashirwad Children & Surgical Hospital,Maharashtra,Mumbai,"No.301-306,Ruby Monarch Bldg,Sakivihar Road,Sakinaka,Opp.Post Office,",400072
482,Ashirwad Hospital,Maharashtra,Mumbai,"#117,Kaap Kaneri,Thane,Opp Gopal Nagar Near Kalyan Naka",421302
483,Ashirwad Hospital,Maharashtra,Mumbai,"Maratha Section,Near Jijamatha Udyan,Ulhasnagar,Thane",421004
484,Ashirwad Hospital,Maharashtra,Pune,"2Nd Floor,Punit Yash Arcade,Near Kothurd Bus Stand,Karve Road",411038
485,Ashirwad Hospital & Poly Clinic,Maharashtra,Mumbai,"#101, 103, Anurag Busines Centre, W.T.Patil Marg, Ghtla Villate, Chemburw.T. Patil Marg,Ghatla Village",400071
486,Ashirwad Hospital & Research Centre,Uttar Pradesh,Varanasi,"B-38/1-C, Virdopur, Mahmorganj, Varanasi-221010",221010
487,Ashirwad Maternity & General Hosptial,Maharashtra,Thane,"17,18 Samir Apt,Jesal Park,Bhayandar East,Thane",401105
488,Ashirwad Maternity & Nursing Home,Maharashtra,Mumbai,"A/5,Harsh Appartment,Anand Nagar,Dhisar East",400068
489,Ashirwad Medical & Orthopedic Hospital,Gujarat,Patan,"4-A, Subhadra Nagar, Opp. Technical School, Patan.",384265
490,Ashirwad Nursing Home,Madhya Pradesh,Ratlam,"55-56,Ved Vyas Colony",457001
491,Ashirwad Nursing Home,Maharashtra,Nalasopara,"'C'Wing, Seema Complex, Tulinj Road,Nalasopara(E),Thane,",401205
492,Ashirwad Nursing Home & Research Centre,Orissa,Sambalpur,Hospital Raod,768001
493,Ashirwad Orthopaedic And Surgical Nursing Home,Maharashtra,Mumbai,"Jambli Galli, Opp. Jain Temple, Borivali(W)",400092
494,Ashirwad Surgical Hospital,Gujarat,Amraiwadi,"Wonder Paint,Nh8 Ctm,Amraiwadi",380028
495,Ashish Hospital,Madhya Pradesh,Jabalpur,"#1309, Napier Town,Home Science College Road.",482001
496,Ashish Orthopaedic Hospital,Gujarat,Ahmedabad,"24, Himalaya Complex, Nehru Park, Vajtrapur",380015
497,Ashok Hospital,Karnataka,Bangalore,"#65,N.H.C.S. Lay-Out, 3Rd Stage, 4Th Block, Basaveshwar Nagar, Kamalanagar Main Road.",560079
498,Ashok Hosptial,Tamilnadu,Hosur,"#10-A, 1St Cross, Old Banfalore Road, Hosur,",635109
499,Ashok Nursing Home,Delhi,Delhi,"F-3/15, Vijay Chowk,Krishna Nagarkrishnanagar, Delhi-110051.",110051
500,Ashoka Hospital,Kerala,Kannur,South Bazar.,670002
501,Ashraya Hospital,Karnataka,Bangalore,"#26, Jetiappa Complex,Yelachenahalli, Kanakapura Rd",560078
502,Ashraya Hospital,Karnataka,Chickmangalur,P B No 77 Naidu Streetchikmagalur,577101
503,Ashraya Hospital,Karnataka,Davangere,"No.1977/1 & 2,Mcc 'A' Block,Shamanur Road,Davanagere",577004
504,Ashraya Medinova Pvt Ltd,Karnataka,Bangalore,"Magadi Main Road,Sunkadakatte,Srigandadakaval,",560091
505,Ashtavinayak Maternity Eye & Sugical Nursing Home,Maharashtra,Mumbai,"Mtnl Marg College Lane, Ramgiri Heights, 104 First Floor.",400028
506,Ashtvinayak Hospital,Maharashtra,Raigad,"Khanda Colony,New Panvel West.",410206
507,Ashveny Clinic,Tamilnadu,Sivakasi,"1/6, Periyakaruppan Road,Sivakasi-626189",626189
508,Ashvini Maternity & Gynecological Hospital,Maharashtra,Raigad,"Plot #59/1,Old Thanaka Road,Panvel",410206
509,Ashwani Hospital,Haryana,Faridabad,"Sector 9, Huda,Market,Opp Comunity Centre",121001
510,Ashwani Hospital,Haryana,Faridabad,8-D1/Sector-11,121006
511,Ashwin Hospital,Tamilnadu,Erode,"#212/545,Skc Road,Surampatti Nall Road,",638001
512,Ashwin Hospitals,Tamilnadu,Coimbatore,"#1, Alamu Nagar Road,Coimbatore-641012.",641012
513,Ashwini Accident Multispeciality Hospital,Maharashtra,Nashik,"Govind Nagar,Chowk #5,Behind Hotel Prakash,",422001
514,Ashwini Hospital,Karnataka,Bangalore,"#129, Katruguppa, Bsk 3Rd Stg,",560085
515,Ashwini Hospital,Karnataka,Bangalore,"B.B.Road, Yelahanka,Bangalore-560064",560064
516,Ashwini Hospital,Karnataka,Dakshinakannada,"Nh-48, Nellyady,Dakshina Kannadadakshina Kannada",574229
517,Ashwini Hospital,Maharashtra,Pune,"Dattahasta 20/156,Bijali Nagar,Chinchwad",411033
518,Ashwini Hospital(A Unit Of Cuttack Hospitals Pvt Ltd),Orissa,Cuttack,"Plot No.P3, Sector-1, Cda, Cuttack",753014
519,Ashwini Kidney & Dialysis Centre,Maharashtra,Nagpur,"301 & Central Bazar Road, Ramdaspeth, Neet Gaurav Complex, Nagpur, Maharashtra",440010
520,Ashwini Maternity & Surgical Hospital,Maharashtra,Mumbai,"Ambika Darshan, M G Road, Above Bharti Jewellers, Rajawadi, Ghatkopar East, Mumbai - 400075 ,M.G.Road, Ghatkopar",400075
521,Ashwini Multispeciality Hospital,Maharashtra,Mumbai,"Vadvau Section, Ambernath,Thane",421501
522,Ashwini Nursing And Maternity Home,Maharashtra,Mumbai,"Mohan Niwas Keluskar Rdnear Meenatai Thakare Statue Shivaji Parkkeluskar Road, Dadar (W)",400028
523,Ashwini Nursing Home,Karnataka,Bangalore,"#9, 1St A Cross. T.C. Palya Main Road, Akshyanagar, Ramamurthy Nagar.",560016
524,Ashwini Nursing Home,Karnataka,Bangalore,"#382,Narayanappa Buildingd Ramamurthynagar",560016
525,Ashwini Nursing Home,Karnataka,Davangere,"Akka Mahadevi Road,A.V.K.College Road,P.J.Extension,Near Bapuji Corporation Bank,",577002
526,Ashwini Nursing Home,Maharashtra,Pune,"S.No#51,Plot#16,Dhanori Road,Maharanapratap Chawk,Vishrantwadi",411015
527,Ashwini Sahakari Rugnalaya & Research Centre,Maharashtra,Sholapur,"North Sadar Bazar, Near Bhagatsingh Marketnear Bhagatsingh Market,",413003
528,Asian Eye Institute & Laser Centre,Maharashtra,Mumbai,"# 101A, Satya Narayan Apartment,Off M.G.Road, Borivali(E), Mumbai-400066",400066
529,Asian Globus Liver & Gastroenterology Centre,Madhya Pradesh,Bhopal,"E-5/24,Arera Colony, Arera Petrol Pump, Bhopal",462016
530,Asian Institute Of Gastroenterology,Andhra Pradesh,Hyderabad,"6-3-661, Somajiguda, Near Red Rose Hotel, Hyderabad-500082",500082
531,Asian Institute Of Medical Science,Maharashtra,Thane,"Plot No.P-72,Milap Nagar,Midc,Dombivli,Thane,",421203
532,Asian Institute Of Medical Sciences (A Unit Of Blue Sapphire Health Care Pvt Ltd),Haryana,Faridabad,Badkal Flyover Road Opp C.P Office,121001
533,Asian Specialty Hospital (A Unit Of Orch Hospital And Healthcare Services Llp),Karnataka,Hsr Layout,"# 11/A, 9Th Main, 13Th Cross, 6Th Sector Hsr Layout, Outer Ring Road, Bangalore-560102Hsr Layout",560102
534,Asopa Hospital,Rajasthan,Jaipur,"93-B Tagore Nagar, Jaipur, Rajasthan-302024, Near D.C.M.",302024
535,Asopa Hospital & Research Centre,Uttar Pradesh,Agra,"Garland Road, Off By Pass.",282007
536,Assured Best Care Hospital,Tamilnadu,Trichy,"#1, Annamalai Nagar Main Road Thillai Nagarannamalai Nagar",620018
537,Aster Aadhar Hospital (Prerana Hospital Ltd),Maharashtra,Kolhapur,"R.S. No.628, 'B' Ward, Shastri Nagar, Near Kmt Workshop, Kolhapur, Maharashtra-416012Mangalwar Peth",416012
538,Astha Hospital,Uttar Pradesh,Noida,"N.H-05, Block-2, Sector-Alpha-2, Greaer Noida-201306",201306
539,Aswene Soundra Hospital & Research Centre,Tamilnadu,Chennai,"# 24,Kasturi Rangan Road,Teynampet",600018
540,Aswinee Nursing Home,Andhra Pradesh,Vijayawada,"D.No.29-26-56,Suryaraopet,Jadagamvari Street,Vijayawada,",520002
541,Aswini Hospital,Kerala,Trichur,"Karunakaran Nambiar Road, Thrissur-680020",680020
542,Aswini Hospitals,Andhra Pradesh,Guntur,"15-1-17, 150 M5 From Rtc Bus Stand",522001
543,Aswini Mother & Child Hospital,Andhra Pradesh,Westgodavari,"Taylor Pet,Narsapur",534275
544,Aswini Netralayam,Andhra Pradesh,Guntur,"16-2-89, Guntur Road, Narasaraopet.",522601
545,Atam Prakash Yadav Hospital,Haryana,Rewari,"Near Nai Anaj Mandi,Bharawas Road",123401
546,Athare Patil Memorial Hosp And Research Center Pvt Ltd,Maharashtra,Ahmednagar,"185,Savedi Road,Ahmednagar-414001Maharashtra",414001
547,Athena Hospital,Karnataka,Mangalore,"Falnir Road, Mangalore-575001, Opp Ymca, Near Platinum Theatre",575001
548,Athipathi Hospital And Research Center,Tamilnadu,Chennai,"Plot No 1,100 Ft Rd,Tanni Nagar,Velachary",600042
549,Athreya Hospital,Karnataka,Virajpet,"Gonikoppal Road Opp, Kstrc Bus Stands.Kodagu",571218
550,Atlas Hospitals,Tamilnadu,Tiruchirapalli,"34/1-First Cross, V.N. Nagar, Near Chathiram Bus Stand, Tiruchirapalli-620002",620002
551,Atole Accident Hospital,Maharashtra,Baramati,"Avdhoot Plaza,Bhigwan Road,",413102
552,Attharva Accident Hospital,Maharashtra,Pune,"Plot # 17,Vadgaon Road,Near Bank Of Maharashtra,Talegaon Dabhade",410507
553,Attingal Speciality Hospital,Kerala,Trivandrum,Parvathipuram Gramom.,695101
554,Atul Hospital,Maharashtra,Mumbai,"26-A,Bharat Nagar, Grant Roadbharat Nagar",400008
555,Atul Lok Hospital,Maharashtra,Mumbai,"#139/2447,Tagore Nagar,Group-7,Vikhroli East",400083
556,Atul Nursing Home,Uttar Pradesh,Agra,"#1/58, Delhi Gate, Opp. Pushpanjali Hospital, Agra-282002",282002
557,Aum Eye Hospital,Gujarat,Jamnagar,"Jolly Bunglow Complex,Summair Club Road,",361005
558,Aum Hospital,Chattisgarh,Durg,"House # 22, Ward # 18.",491001
559,Auro Ent Hospital,Gujarat,Ahmedabad,"Sanjeevani Complex Opp Mehsana Society, New Vadaj Road",380013
560,Aurobindo Netralaya,West Bengal,Kolkata,"4A,Rajendra Beb Road,",700007
561,Auroma Ent Hospital,Gujarat,Ahmedabad,"Agrawal Tower, Bhuyangdev Cross Road, Ghatlodia",380061
562,Austmangal Surgical Hospital,Gujarat,Ahmedabad,"Ahmedabad, Civil Hospital (1 Km)",380004
563,Avadh Hospital & Heart Centre,Uttar Pradesh,Lucknow,"9-D, Singar Nagar, Kanpur Road.",226005
564,Avadhani Nethralaya,Karnataka,Bangalore,"No.33,1St Floor,Patalamma Temple Street,Basavanagudi,",560004
565,Avadhoot Hospital & Iccu,Maharashtra,Mumbai,"Plot # 29,Sector-19,Thane",400708
566,Avanitka Hospital,Delhi,Delhi,"#168/A-00/Sector-2, Rohini, Near Pole Star Public School.",110085
567,Avanti Institute Of Cardiology Pvt. Ltd.,Maharashtra,Nagpur,"# 5, Abhyankar Road,Dhontolidhantoli, Nagpur-440012",440012
568,Avantika Hospital,Uttar Pradesh,Ghaziabad,"No.137,Niti Khand-Ii,Indirapuram,",201010
569,Avhieta Hospital & Health Care,Karnataka,Bangalore,"280/1 Byrathi Cross, Hennur Bagalur Main Road, Bangalore-560077",560077
570,Avinash Shah Memorial Multispeciality Hospital,Karnataka,Gulbarga,"184-20/08/2007,Jayanagar,Sedam Road",585105
571,Avm Medical Ent Research Fundation,Tamilnadu,Chennai,"3, P.S.S. Road,Mylapore",600004
572,Avss Hospitals,Tamilnadu,Madurai,"# 32A, Kuruvikkaran Salai, Madurai-625009",625009
573,Aware Global Hospital (A Unit Of Ravindranath Ge Medical Associates Pvt Ltd),Andhra Pradesh,Hyderabad,"08-16-01, Lingojiguda,Saroornagar,L.B.Nagar",500035
574,Aware Global Hospitals,Andhra Pradesh,Hyderabad,"Shanthivanam, Nagarjuna Sagar Roadnagarjuna Sagar Road,",500035
575,Axis Eye Foundation,Andhra Pradesh,Hyderabad,"Suite # 502, Rivera Apts Dwarakapuri Colony Panjagutta",500082
576,Axon Hospitals,Andhra Pradesh,Hyderabad,"8-3-215,Srinvasanagar, Colony West, Opp Icici Bank Sr Nagar,Hyderabad-500038",500038
577,Aysha Hospital,Tamilnadu,Chennai,"91A Millers Road, Kilpauk",600010
578,Ayub Ansari Nursing Home,West Bengal,Kolkata,"Q-39,S.A.Farooquie Road,Metiabru,",700024
579,Ayush Hospital,Andhra Pradesh,Hyderabad,"Premises # 1-2-30/7, Nizampet Road.",500072
580,Ayush Hospitals & Trauma Care Pvt Ltd,Orissa,Bhubaneswar,"#13-14,Acharya Vihar Square,Acharya Vihar,Bhubaneswar",751022
581,Ayushmaan Hospital & Diagnostic Institute,Chattisgarh,Raipur,"Sunder Nagar, Mahadeo Ghat Road, Raipur",492001
582,Ayushman Hospital,Delhi,Delhi,"# 2, Sec-12, Dwarka",110075
583,Ayushman Hospital,Madhya Pradesh,Bhopal,"C-Sector, Shahpura Lake",462014
584,Ayushman Hospital & Trauma Centre,Haryana,Gurgaon,37K.M. Hero Honda Chowk.,122001
585,Ayushman Hospital & Trauma Centre,Uttar Pradesh,Varanasi,"J25/59, Alaipur, G.T. Road, Infornt Of Varanasi City Railway Station, Varanasi-221001",221001
586,Ayushman Neuro Cardio Centre Shubham Hospital,Madhya Pradesh,Gwalior,"14-B,Vijaynagar Extension,Near Prem Motors,Baant Vihar",474002
587,Azam Hospital,Andhra Pradesh,Hyderabad,"21-4-189, Azam Hospital, Hussaini Alam, Hyderbad-500002",500002
588,Azra Memorial Hospital,Uttar Pradesh,Lucknow,"Water Works Road, Aishbagh Opp Ramleela Maidan Opp Ramleela Maidan Besides Aishbabagh Eidgah",226003
589,B M Birla Heart Research Centre,West Bengal,Kolkata,"1/1, National Library Avenue",700027
590,B M Hospitals,Tamilnadu,Chennai,"36, 5Th Main Road,Thillai Ganga Nagarcheenai",600061
591,B.A Hospital & Training Centre,Karnataka,Bantwal,"Thumbay,Bantwal",574170
592,B.B Hospital,Tamilnadu,Chennai,"No.52,Dayalu Nagar,Kolathur,Near Villirakham Railway Station,",600099
593,B.G Hospital,Tamilnadu,Tiruchendur,"1/143-B,Tuticorin Road,Veerapandianpatnam, Tiruchendur",628216
594,B.G. Hospital,Karnataka,Bangalore,"Mayamma Thimmappa Complex, Tumkur Road, Anchepalya.",560073
595,B.G.S Vivus Heart Centre,Karnataka,Mandya,"Bandhi Gowda Extension,Bangalore Mysore Highway,",571401
596,B.J. Lingegowda Hospital,Karnataka,Chanapatna,Bangalore-Mysore Road,571501
597,B.J.S.Bal Memorial Hospital,Punjab,Gurdaspur,"#11/4,Dharampur Colony,Batala,Gurdaspur",143505
598,B.K.Heart Hospital Pvt Ltd,Uttar Pradesh,Varanasi,"N 7/1,R-12,Bhikharipur,Dlw,Bhu,Varanasi",221004
599,B.K.Memorial Hospital,Assam,Sonitpur,"Natun Para Near Ganesh Mill Char Ali,Tezpur",784001
600,B.K.R Hospital,Andhra Pradesh,Hyderabad,"8-3-164/C, Erragadda, Beside Gokul Theatre.",500018
601,B.M. Gupta Nursing Home Pvt Ltd.,Delhi,Delhi,"H-11, Uttam Nagar, New Delhi",110059
602,B.M.Orthopaedic Hospital,Tamilnadu,Chennai,"No.3/157, Mth Road, Ambattur,Chennai - 53",600053
603,B.M.R Hospitals,Andhra Pradesh,Guntur,"6Th Lane,2Nd Cross,Arundelpet",522002
604,B.M.Silver Jubilee Multi Speciality Hospital,Tamilnadu,Kanchipuram,"41, Dharga Road, Pallavaram, Kancheepuram, Chennai-600043",600043
605,B.N.V Hospital Pvt Ltd,Kerala,Trivandrum,"Thiruvallam Post,Trivandrum",695027
606,B.P. Poddar Hospital & Medical Research Ltd,West Bengal,Kolkata,"71/1, Humayun Kabir Sarani,New Alipore,Blk-G,New Alipore, Block-G,Kolkata",700053
607,B.P.Jain Hospital,Tamilnadu,Kanchipuram,"Plot No.6,Gokulam Colony,Anna Salai,Pammal,Kanchipuram",600075
608,B.R. Hospital,Tamilnadu,Thiruvallur,"10&12, Alamaram Street, Tiruttani.",631209
609,B.R. Memorial Hospital,Haryana,Ballabgarh,"Fca-103, Mukesh Colony, Ballabgarh, Faridabad-121004",121004
610,B.S. Hospital,Tamilnadu,Chennai,"# 16, 3Rd Main Road,Chitlapakkam,",600064
611,B.S.S. Hospital,Tamilnadu,Chennai,"New No 200, Old # 179/1, R.K. Mutt Road, Mandaveli,",600028
612,B.Siddaramanna Hospital,Karnataka,Tumkur,"Opp Ib Railway Station Road,Gandhinagar",572102
613,B.T. Hospital,Delhi,Delhi,"182, Mukherjee Park,Khyla Road",110018
614,Babus Maternity Hosptial,Tamilnadu,Chennai,"# 7, Doraisamy Reddy Street, Tabaram",600045
615,Baby Hospital,Andhra Pradesh,Ananthapur,"12-2-950(12-358)Sai Nager 2Nd Cross,Anantapur",515001
616,Baby Memorial Hospital Ltd,Kerala,Calicut,"Indira Gandhi Road, E.K. Nayanar Flyover",673004
617,Bacc Health Care Private Limited,Karnataka,Bangalore,"No 6/7, Kumara Krupa Road,High Grounds,",560001
618,Badade Hospital,Maharashtra,Pune,"Agarwal Chambers,Mumbai Pune Highway",411044
619,Bafna Hospital & Orthopaedic Research Centre,Madhya Pradesh,Indore,"18/1, North Rajmohalla",452002
620,Bagade Hospital For Women & Maternity Home,Maharashtra,Pune,"B.No. 7B F. No.3+4, Agarsen Nagar Dapodi, Pune-Mumbai Road, Opp .Atlas Copco Co Dapodi",411012
621,Bagdi Nursing Home,Tamilnadu,Chennai,"3Rd Floor, #10, Solaiappan Streett.Nagar",600017
622,Bahl Hospital & Medical Research Centre,Rajasthan,Jaipur,"Hanumangarh Road, Chahal Chowk,Sri Ganga Nagar, Rajasthan.",335001
623,Bahusar Nursing Home,Karnataka,Mysore,"#3587,B.M. Road,Hunsur.",577105
624,Bajaj Eye Care Centre,Delhi,Delhi,"101, Vikas Surya Plaza, Plot # 7, Dda Community Centre Road # 44, Pitampura.",110034
625,Bajwa Hospital,Punjab,Amritsar,"No.314-315,Akash Avenue,F.C.Road,",143001
626,Bakhtar Hospital,Maharashtra,Amravati,"Raja Peth, Amravati-444601.",444601
627,Bakshi Hospital,Punjab,Bhatinda,"Str # 3, Bibiwala Road,Bathinda",151005
628,Balagangadhara Varma Nursing Home & Research Center,Tamilnadu,Chennai,"No 17, First Main Road,Narayanapuram",601302
629,Balaji Accident Hospital,Maharashtra,Malegaon,Malegaon Camp,423105
630,Balaji Eye Care & Laser Centre,Andhra Pradesh,Hyderabad,"1St Floor,D-No 6-3788/32,Durganagar Colony Main Road,Ameerpet",500016
631,Balaji Healthcare (Rajpal Hospital),Maharashtra,Mumbai,"Plot #.13, Sector 10, Kopar-Khairane",400709
632,Balaji Hospital,Haryana,Jind,"Rohtak Road,",126102
633,Balaji Hospital,Andhra Pradesh,Kurnool,"Balaji Hospital 43/19 N.R. Peta, Kurnool-500001",500001
634,Balaji Hospital,Andhra Pradesh,Secunderabad,"Plot #34,34/A,Pet Basheerabad,Ncl South,Medchal Road,Ranga Reddy",500055
635,Balaji Hospital,Andhra Pradesh,Warangal,"#15-4-17, S.V.N Road ,Warangal-506002",506002
636,Balaji Hospital,Karnataka,Bangalore,"40/1, J.J.R. Nagar Main Road,K.H. Ranganath Colony.",560018
637,Balaji Hospital,Karnataka,Tumkur,"B.H. Road, Tiptur.Near Aralikatte",572201
638,Balaji Hospital,Kerala,Palakkad,"11/787, Brindavan Street,Near Town Hallpalakkad",678001
639,Balaji Hospital,Tamilnadu,Chengalpattu,"No.14,Varadanar Street,Vedachalanagar,Chengalpattuvedachala Nagar",603001
640,Balaji Hospital,Maharashtra,Mumbai,"Victoria Road, Cross Lane 3.",400027
641,Balaji Hospital,Maharashtra,Pune,"Bye Pass Chowk,Nagar Road",411014
642,Balaji Hospital,Maharashtra,Thane,"Golden Nest Phas 5 Mira Road,Bhayandar Thane.",401105
643,Balaji Hospital ( A Unit Of Shri Vhmrc Pvt Ltd),Gujarat,Baroda,"Opp. Vidya Vikas School, Subhanpura.",390023
644,Balaji Maternity & Nursing Home,Maharashtra,Thane,"A 7/28,Hiramoti Complexshivaji Nagar, Wagle Estate",400604
645,Balaji Nursing Home,Karnataka,Bangalore,"Dommasandra Bus Stop,",562125
646,Balaji Nursing Home,Karnataka,Chickmangalur,"T.B. Road,Kadur.",577548
647,Balaji Speciality Hospital,Maharashtra,Mumbai,"1St Floor, Jalaram Commercial Centre,Sakivihar Road,Sakinaka,",400072
648,Balaji Surya Hospital,Tamilnadu,Erode,"#129,Pollachi Road,Dharapuram",638656
649,Balakrishna Eye Hospital & Eye Research Centre,Tamilnadu,Chennai,"11, Sastri First Cross Street, Chennai, Tamilnadu",600015
650,Balanku Hospital,Karnataka,Raichur,"Near Basavana Bhavi Chowk, Basavanagara, Raichur-584102",584102
651,Baldwa Hospital,Maharashtra,Mumbai,"Sumer Nagar, S.V. Road, Borivali West",400092
652,Bali Nursing Home,Delhi,Delhi,"D.B.Gupta Road, Karol Bagh",110005
653,Ballabgarh Nursing Home,Haryana,Faridabad,"64,65-Mukesh Colony Ballabgarn",121004
654,Banarasidas Chandiwala Institute Of Medical Sciences,Delhi,Delhi,"Chndiwala Estate, Maa Anandmai Marg Kalkaji, New Delhi",110019
655,Banashankari Hospital Pvt Ltd,Karnataka,Hubli,"Chitguppipark, Pinto Road,Hubli Dharkiad",580020
656,Bangalore Baptist Hospital,Karnataka,Bangalore,"Bellary Road, Hebbal, Bangalore-560024, Opp University Of Agricultural Sciences (Near Hebbal Flyower)",560024
657,Bangalore Eye Hospital & Retina Centre,Karnataka,Bangalore,"4C,426 4Th Cross, 2Nd Block,Kalyannagar.",560043
658,Bangalore Nethralaya Super Speciality Eye Hospital,Karnataka,Bangalore,"#946,21St Main, Near Bda Complex,Banashankari ,2Nd Stage",560070
659,Bangur Medicare Research Institute,West Bengal,Kolkata,"No.8A,Diamond Harbour Road,24 Parganas(S),3A Bus Stand-Thakurpukur,",700063
660,Bani Park Hospital( Heart. Eecp & Multispecialty),Rajasthan,Jaipur,"D-9, Kabir Marg, Bani Park, Jaipur",302016
661,Bankers Heart Institute,Gujarat,Baroda,"Near Tagorenagar,Old Padra Road,Opp Suryakiran Building,",390015
662,Bankura Nursing Home,West Bengal,Bankura,"Patpur,Bankura",722101
663,Bansal Hospital & Research Centre Pvt Ltd,Delhi,Delhi,"3590, Bajar Sitaram, Delhi",110006
664,Bansal Hospital And Research Centre,Rajasthan,Jaipur,"#4, Janakpuri-1St, Imli Phatak.",302005
665,Bansal Hospital(A Unit Of Namedi Hospitalpvt Ltd,Delhi,Delhi,"No.A-1,New Friend'S Colony,",110065
666,Bansal Nursing Centre (A Unit Of Pahari Mata Medical (P) Ltd),West Bengal,Howrah,"# 20, Dobson Road,Howrah-711101.",711101
667,Bapat Hospital,Madhya Pradesh,Indore,"Ahd-30, Sukhlia",452010
668,Bappu Clinic & Nursing Home,Tamilnadu,Chennai,"#46, Kalaingar Main Road,Srinivasa Nagar, Perungalatur,",600063
669,Baptist Christian Hospital,Assam,Sonitpur,"Mission Chariali, 4 Corps Army Battalion. Tezpur",784001
670,Bapuji Maternity & Nursing Home,Andhra Pradesh,Hyderabad,"7-44,Bapuji Nagarnacharam",500076
671,Bapuji Nursing Home,Karnataka,Tumkur,"1St Cross, Someshwar Puram,Tumkur-572102.",572102
672,Baradkar Hospital & Maternity Home,Maharashtra,Mumbai,"14,A-3,Meera Queen,Opp Laxmi Cars,W.E.Highway,Kashimira,Thane",401107
673,Bardia Hospital,Maharashtra,Amravati,"Paratwada, Amravati,Opp. S.T. Stand.",444805
674,Bareja Hospital,Haryana,Faridabad,"Main Road, Fatehpur Billoch,Ballabgarh",121004
675,Bargachia Nursing Home,West Bengal,Howrah,"Bargachis, J.B.Pur, Opp Petrol Pump.",711404
676,Baroda Heart & Multispeciality Hospital,Gujarat,Bharuch,"71 To 91,Capital Business Centre,Upper Ground Floor,Wing B,Panchbatti Oppcentral Bank Of India,Station Road,",392001
677,Baroda Heart Institute And Research Centre,Gujarat,Baroda,"44, Haribhakti Colony, Race Course,Vadodara",390007
678,Barrackpore Medicare & Recovery Centre Ltd,West Bengal,Titagarh,"No.6/6,B.T.Road,Talpukur,Titagarh,24-Parganas(North)",700123
679,Barsa Nursing Home,Orissa,Kendrapada,"By Pass Square, Pattamundai",754215
680,Barthakur Clinic Pvt Ltd,Assam,Guwahati,Karghuli Road Kharghuli,781028
681,Basant Sahney Hospitals.,Andhra Pradesh,Secunderabad,"#253,Nehru Nagar,Road No.11,West Marredpally,K.Konda Reddy Street,Secunderabad,",500026
682,Basappa Memorial Hospital,Karnataka,Mysore,"22-B, Vinobha Road, Mysore-570012",570012
683,Basappa Multispeciality Hospital,Karnataka,Chitradurga,"Basapa Hospital Building,Turuvanur Road,",577501
684,Basavanagudi E.N.T. Care Centre,Karnataka,Bangalore,"44/1, H.B. Samaja Road, Basavanagudi",560004
685,Basavangudi Medical Centre,Karnataka,Bangalore,"84/1, R.V. Road, Basavanagudi,Bangalore-560004.",560004
686,Basavatarakam Indo American Cancer Hospital & Research Institute,Andhra Pradesh,Hyderabad,"Road No 14, Banjara Hills, Hyderabad-500034",500034
687,Bassi Nursing Home Pvt Ltd,Punjab,Ludhiana,"B-970,Nea Dhubighat,Rajpura Road",141001
688,Batalia Eye Hosptial,Madhya Pradesh,Jabalpur,"Dr. Batalia Road, Near Clock Tower",482001
689,Batra Hospital,Delhi,Delhi,"1 ,Tughkalabad Institutional Am.B Road",110062
690,Batra Hospital,Gujarat,Baroda,"112-116,Chaturbhai Park Sangam Warasia Ring Road",390006
691,Batra Hospital,Madhya Pradesh,Bhopal,"#17, Zone-1, Mp Nagar",462011
692,Bavishi Eye Hospital,Gujarat,Ahmedabad,"# 1, Tapovan Society, S.N. Road, Ahmedabad-380015",380015
693,Bavishi Hospital,Gujarat,Ahmedabad,"Opp Manjulal Municipal Garden,Near Adani Cng Pvmp Station",380007
694,Bawa Hospital Pvt Ltd,Punjab,Ludhiana,"Near Old Dandi Swami Mandir, Civil Lines",141001
695,Bay View Clinic,Maharashtra,Mumbai,"3/3A, M. Parmanand Road,Mumbai-400004,",400004
696,Bbc Heart Care Pruthi Hospital,Punjab,Jallandhar,"301, Lajpat Nagar, Jalandhar.Punjab.",144001
697,Be Well Hospitals Pvt Ltd,Tamilnadu,Pondicherry,"No. 15, Lawspet, Green Garden, Ecr, Pondicherry, Shenbaga Motors (Maruthi Show Room)",605008
698,Beams Hospitals Privated Limited,Karnataka,Bangalore,"640, 12Th Main, 80 Ft Road, 4Th Block, Koramangala, Bengaluru-560034",560034
699,Beams Hospitals Pvt Ltd-Amritsar,Punjab,Amritsar,"29-B, Race Course Road, Amritsar, Punjab-143001",143001
700,Beams Hospitals Pvt Ltd. Hyderabad,Andhra Pradesh,Hyderabad,"Plot No. 99, Road No-1, Jublee Hills, Hyderabad-500033",500033
701,Beas Hospital,Himachal Pradesh,Kullu,"The Mall,Dhalpurdhacpur",175101
702,Behera Nursing Home,Orissa,Bargarh,"National Highway # 6, Bargarh, Infront Of R.T.O",768028
703,Behl Hospital,Delhi,Delhi,"B-128, Naraina Viahar",110028
704,Bejan Singh Eye Hospital Pvt Ltd,Tamilnadu,Kanyakumari,"No.2/1,313C,M.S.Road,Vettoornimadam,Nagercoil,",629003
705,Belaku Eye Hospitals Pvt Ltd,Karnataka,Kengeri Upanagara,"#769, 1St Cross, Ring Road, Kengeri Upanagar, Bangalore-560060Kengeri Upanagara",560060
706,Belgaum Cancer Hospital Pvt Ltd,Karnataka,Belgaum,"#9666A-2/D,Ashok Nagar, Belgaum-590010",590010
707,Belgaum Children'S Hospital Pvt Ltd,Karnataka,Belgaum,"1St Floor,Samsukha Complex,Khade Bazar",590001
708,Belle Vue Nursing Home,Maharashtra,Mumbai,"Sejal, 1St Floor, New Link Road Off Veera Desai Road Andheriroad, Versova, Andheri(W)",400058
709,Belle Vue'S Cambridge Hospital,Karnataka,Bangalore,"18/17, Cambridge Road, Ulsoor, Bangalore-560008",560008
710,Bellona Nursing Home And Diagnostic Centre Private Limited,West Bengal,Kolkata,"51 A, Diamond, Harbour Road, Mominpur Crossing.",700027
711,Belokar Hospital,Maharashtra,Amravati,Vijay Colony Rukhmini Nagar,444606
712,Bembde Hospital,Maharashtra,Aurangabad,"14, Beed By Pass Road, Near Shahanoorwadi Rly Crossing, Satara Parisar, Aurangabad, Maharashtra",431005
713,Benaka Health Centre,Karnataka,Ujjire,"Lhh Road,Near Jyothi Takies,Mangalore-575003",574240
714,Bendre Hospital And Maternity Home,Maharashtra,Ahmednagar,"7375,Deshmukhwadi,Sarjapura",414001
715,Bensups Hospital,Delhi,New Delhi,"Bensups Avenue,Sector-12, Dwarka Metro Station",110075
716,Benuban Health Care & Diagnostic Centre,West Bengal,Howrah,"Bultikuri,Near Japani Gate Esi Hospital",711113
717,Benzer Nursing Home,Maharashtra,Mumbai,"2Nd Cross Road,Lokhandwala Complex,Andheri West",400053
718,Beri Maternity Centre,Punjab,Amritsar,"G.T.Road Putlighar,Amritsarganga",143001
719,Bethany Hospital,Maharashtra,Mumbai,"Next To Glaxo,Opp. Ma Niketan,",400610
720,Bethel Hospital (P) Ltd,Tamilnadu,Coimbatore,"# 223, Dr. Rajendra Prasad Road.",641012
721,Better Health Pvt Ltd,Gujarat,Ahmedabad,"Pallav J.M. Desai Memorial Hospital, Maninagar East.",380008
722,Better Sight & Research Centre,Maharashtra,Mumbai,"Sector 7,B/29-004,Shantivagar,Mira Road East,Thane",401107
723,Bgm Hospital,Tamilnadu,Madurai,"1/249,New Nathan Road,Iyyer Bungalow",625014
724,Bgs Global Hospital,Karnataka,Bangalore,"#67,Uttarahalli Road,Kengeri",560060
725,Bhadra Nursing Home,Karnataka,Bhadravathi,Gandhinagar,577301
726,Bhagat Chandra Hospital (A Unit Of Bhagat Hospitals (P) Ltd.),Delhi,New Delhi,"Rz-F1/1, Mahavir Enclave, Near Dwarka Airport Flyover, New Delhi.",110045
727,Bhagat Hospital,Delhi,Delhi,"D-2/48-49, Janakpuri, New Delhi",110059
728,Bhagat Nursing Home,Maharashtra,Mumbai,Ganesh Nivas 2Nd Floorpai Nagar,400092
729,Bhagavathi Multi Speciality Hospital,Karnataka,Hsr Layout,"L-168, 6Th Sector, Hsr Layout, Bangalore-560102",560102
730,Bhagawati Netralaya,Maharashtra,Pune,Manik Chowk Chakan Tal Khed,410501
731,Bhagirathi Hospital,Orissa,Dhenkanal,"Hanuman Bazar,Kamakshyanagar",759018
732,Bhagwan Mahaveer Cancer Hospital And Research Centre,Rajasthan,Jaipur,"Jawaharlal Nehru Marg, Near Saras Dairy.",302017
733,Bhagwan Mahaveer Darshan Eye Hospital,Karnataka,Mysore,"Opp. K.R. Mills, Mysore Bangalore Road, Siddalingapura, Mysore-570003",570003
734,Bhagwan Mahaveer Eye Hospital,Tamilnadu,Chennai,"# 142, M.S. Koil Street, Royapuram.",600013
735,Bhagwan Mahaveer Jain Heart Centre( A Unit Of Srinivasa Cardiology Centre Pvt Ltd),Karnataka,Bangalore,"#8,Millers Tank Bund Road Near Cantonment Railway Station",560052
736,Bhagwan Mahaveer Jain Hospital,Karnataka,Bangalore,"No.17, Millers Road, Vasanthnagar, Bangalore-560052",560052
737,Bhagwan Mahaveer Jain Netralaya,Karnataka,Bangalore,"#3, Railway Platform Road,Sheshadripuram, Policestation Opp. Roadsheshadripuram",560020
738,Bhagwan Mahavir Hospital,Delhi,Delhi,"Sector-14, Ext., Rohini, Madhuban Chowk.",110085
739,Bhagwat Maternity And Nursing Home,Karnataka,Shimoga,"Court Road,Sagar",577401
740,Bhagwati Healthcare Pvt Ltd,Maharashtra,Ulhasnagar,"Plot # 2, Rameshwadi, Kulgaon Badlapur Road, Badlapur West",421503
741,Bhagwati Hospital,Delhi,Delhi,"Cs/Ocf 6 , Sector 13 Rohininear Printers Apt",110085
742,Bhagwati Urology Hospital,Gujarat,Jamnagar,"Amrish Complex,4Th Floor,Gurudwara Road, Indira Marg.",361001
743,Bhagyoday Tirth Hospital,Madhya Pradesh,Sagar,Khurai Road,470002
744,Bhagyojaya Hospital,Maharashtra,Baramati,Indapur Road,413102
745,Bhailal Amin General Hospital,Gujarat,Baroda,Bhailal Amin Marg Gorwabaroda,390003
746,Bhakti Hospital,Maharashtra,Pune,"Pune Nagar Road,Sanaswadi Chowk",412208
747,Bhaktivedanta Hospital,Maharashtra,Mumbai,"Sector-1, Srishti Complex, Mirthane",401107
748,Bhalerao Ent Hospital,Maharashtra,Pune,"Ganaraj Complex,2Nd Floor,# 3,Near Mahaslkant Chowk,Akurdi",411035
749,Bhandari Hospital,Rajasthan,Jodhpur,"204, Ligh,",342008
750,Bhandari Hospital & Research Centre,Madhya Pradesh,Indore,"Gf-21,22,23 Scheme # 54, Vijay Nagar",452014
751,Bhandari Hospital & Research Centre(A Unit Of Bhandari Health Care Pvt .Ltd),Rajasthan,Jaipur,"138-A, Vasundhara Colony,Gopalpura By-Pass,Tonk Road,Gopalpura By-Pass, Tonk Road,",302018
752,Bhandari Maternity & Nursing Home,Maharashtra,Pune,"5,Dhanlaxmi Society,Sinhagad Road",411051
753,Bhandari Polyclinic Pvt Ltd,Madhya Pradesh,Jabalpur,"#659, Napier Town,",482001
754,Bhanu Nursing Home,Karnataka,Bangalore,"69/5B, Bommanahalli, Hosur Rd,Bangalore",560068
755,Bharani Paventhan Multi Speciality Hospital,Tamilnadu,Erode,"74, Sampath Nagar Erode Tamilnadu",638011
756,Bharat Hospital And Research Centre,Madhya Pradesh,Jabalpur,"Patrakar Colony, Near Ranital Chowk",482002
757,Bharat Surgical & Maternity Centre,Punjab,Barnala,"Handiaya Road, 5 No Street.",148101
758,Bharat Vikas Parishad Hospital Research Centre,Rajasthan,Kota,"Pratapnagar, Dada Bari.",327008
759,Bharath Hospital,Kerala,Kottayam,"Azad Lane ,Thirunakkara",686001
760,Bharath Hospital,Tamilnadu,Chennai,"# 72, I St Main Road,Nanganallur",600061
761,Bharath Hospital & Institute Of Oncolgy,Karnataka,Mysore,"# 438, Outer Ring Road, Hebbal.",570017
762,Bharath Nursing Home,Karnataka,Bangalore,"# 1402, Near Vegitable Market, J.P Nagr 1St Phase, Bangalore-560078Kanakapura Main Road.",560078
763,Bharath Rural Hospital & Training Centre,Kerala,Ernakulam,"Kuriapilly,Moothakunnam",683516
764,Bharathi Hospital,Andhra Pradesh,Kadapa,"1/82, R.S. Road, Kadapa-516001",516004
765,Bharathi Hospital,Andhra Pradesh,Vizag,"14-24-1, Men'S Hostel Road, Maharanipet, Visakhapatnam-530002",530002
766,Bharathi Hospital,Karnataka,Channarayapatna,Dr.Bharathi Ravindranath Bajab Soaw Room,573116
767,Bharathi Hospital,Karnataka,Tumkur,"4Th Cross,Barkline Road, K.R. Extension, 4Th Cross, Tumkur-572101",572101
768,Bharathi Hospital,Tamilnadu,Virudhunagar,"# 592/2,Sri Renga Palayam,Rajapalayam",626117
769,Bharathy Hospital,Karnataka,Bangalore,"#4,Nagarabhavi Main Road,Prashanth Nagar",560079
770,Bharatiya Arogya Nidhi Sheth Kantilal C. Parikh General Hospital,Maharashtra,Mumbai,"N.S.Road.No.13, Jupds, Mumbai, Maharashtra",400049
771,Bhardwaj Hospital,Uttar Pradesh,Noida,"Nh-1, Sector-29,Gautam Budh Nagar",201301
772,Bhardwaj Nursing Home,Andhra Pradesh,Warangal,"Beside Bus Stand,Rtc,Thorrur,",506163
773,Bhargava Hospital,Uttar Pradesh,Kanpur,"15/263, Civil Lines, Kanpur",208001
774,Bhargava Hospital & Research Centre,Rajasthan,Jhalawar,"Kohli Mohalla Jhalrapatan,Jhalawar",326023
775,Bhargava Nursing Home,Chattisgarh,Bilaspur,"Magarpara Road,",495001
776,Bhargava Nursing Home,Maharashtra,Mumbai,"Gopal Bhuvan, Tagore Road, Santacruz(W), Mumbai",400054
777,Bharti Eye Foundation,Delhi,Delhi,"1/3,East Patel Nagar,Newdelhi",110008
778,Bhartiya Maternity & Nursing Home,Maharashtra,Aurangabad,"3-12-65,Raja Bazar Jinsi Road",431001
779,Bhartiya Maternity & Nursing Home Pvt Ltd,Maharashtra,Aurangabad,"#27,Manjeet Nagar,Opp Akashwani Chowk Jalna Road",431001
780,Bharucha Hospital,Gujarat,Baroda,"Anjana Park Complex,Subhanpura Main Road",390023
781,Bhaskara Hospital,Andhra Pradesh,Hyderabad,"Shapurnagar Main Road,Near Sai Bhavani Hospital",500055
782,Bhaskara Hospital,Andhra Pradesh,Rangareddy,"Hno-C-11-13-154/1/1,Road#1,Dwarakanagar Colony,Saroornagar,Ranga Reddy",500035
783,Bhate Hospital And Maternity Home Chikodi,Karnataka,Belgaum,"#1243, Basaveshwar Circle, Chikodi, Belgaum-591201",591201
784,Bhatia General Hospital,Maharashtra,Mumbai,"Tukaram Javji Road, Tardeo, Mumbai, Maharashtra",400007
785,Bhatia Global Hospital & Endosurgery Institute,Delhi,Delhi,"307 &308, Ambica Viharpaschim Vihar",110087
786,Bhatia Orthopaedic & Maternity Nursing Home,Haryana,Faridabad,"# 390-Sector 7B, Faridabaddelhi",121006
787,Bhatiya Hospital,Maharashtra,Jalgaon,"'Dwarka'Deshpande Lane,Main Road,Chopda",425107
788,Bhatti Eye Clinic,Maharashtra,Mumbai,"# 22, Amar Mansion,Sion Trombay Road, Mumbai.",400088
789,Bhavana Nursing Home,Karnataka,Anekal,Mysore Bank Road,562106
790,Bhavsar Surgical & Maternity Hospital,Gujarat,Godhra,"Near Church, Panjera Pole, Above Bombay Cold Drinks Medaopp.Bank Of Baroda",389001
791,Bhavya Hospital,Andhra Pradesh,Hyderabad,"Plot No.65,Road No.5,New Samathapuri Colony,Na",500035
792,Bhide Hospital,Maharashtra,Pune,"# 18, Laxmi Park, Navi Pethnavi Peth, Pune-411030.",411030
793,Bhimavaram Hospitals Ltd,Andhra Pradesh,Tadepalligudam,J.P. Road Bhimavaramwest Godavary,534204
794,Bhola Hospital,Haryana,Kurukshetra,"Railway Road, Kurukshetra",136118
795,Bhola Hospital,Uttar Pradesh,Allahabad,"# 12/13, Lowther Road,Dar Bhanga Colony,Darbhanga Colony, Allahabad.",211002
796,Bhopal Charitable Hospital,Madhya Pradesh,Bhopal,"Noor Mahal Road,Chowki Imambadachowki Imambaba, Bhopal-462001",462001
797,Bhopal Eye Hospital,Madhya Pradesh,Bhopal,"# 29, Rajdev Colony, Barasia Road",462001
798,Bhopal Heart & General Hospital,Madhya Pradesh,Bhopal,"H3 B Sector, Sonagiri",462021
799,Bhubaneswar Medical Research Institute & Nursing Home,Orissa,Bhubaneswar,"Plot #-1,Bda District Centre,Chandrasekharpur",751016
800,Bhupal Hospital & Research Centre,Uttar Pradesh,Meerut,"#159, College Road, Adjacent To Ganaga Plaza.",250002
801,Bibi Ayesha Mili Hospital,Karnataka,Bangalore,"242, Old Mysore-Bangalore Rd,Mysore",570015
802,Bibi General Hospital & Cancer Centre,Andhra Pradesh,Hyderabad,"16-3-991/1/C Govt Printing Press, Marketgovt. Printing Press Road",500024
803,Bikaner Nursing Home,Rajasthan,Bikaner,Pawan Puri,334003
804,Bilagi Hospital & Research Centre,Karnataka,Hubli,Opp Nehru Stedium Main Gate,580020
805,Billroth Hospital Limited,Tamilnadu,Chennai,"#43, Lakshmi Takis Rd,Shenay Nagarshenoy Nagar, Chennai",600030
806,Billroth Hospitals - Ra Puram,Tamilnadu,Chennai,"#52, 2Nd Main Road, Raja Annamalai Puram,Raja Annamalai Puram",600028
807,Bilva Hospital,Karnataka,Guttahalli,"No. 21, 22, 2Nd Main Palace Guttahalli, Bangalore-560003, Near Vinayaka Circle",560003
808,Bimal Hospital,Delhi,Nangloi,"17/1,Near Bhuto Wali Gali",110041
809,Bimla Devi Hospital,Delhi,Delhi,"# 5, Pocket B, Ocf Mayur Vihar Phase Iiphase-11, Delhi-110091.",110091
810,Bindu Nursing Home,Maharashtra,Pune,"Sudarshan Nager,Chinchwad",411033
811,Bindubasini Nursing Home,West Bengal,North24Paraganas,"76, Madhusudan Banerjee Road, Birati",700051
812,Birajdar Hospital,Maharashtra,Solapur,"Ninali Vasti Road, Solapur,Maharashtra-413001",413001
813,Birati Nursing Home Pvt Ltd,West Bengal,Kolkata,"No.2,Gopal Jew Mandir Road,Birati,24 Parganas(North),",700051
814,Birmole Hospital,Maharashtra,Raigad,"No.118/1,Cuf Road,Cuf Nagar,Panvel,Opp Royal Cosmo Club",410206
815,Bishop Alapatt Mission Hospital,Kerala,Cochin,Karanchira Kattoor P.O,680702
816,Bishop Benziger Hospital,Kerala,Kollam,Beach Road Kollam-691001,691001
817,Blk Memorial Hospital,Delhi,Delhi,"Pusa Road,Near Rajendra Place Metro Station",110005
818,Bobade Accident Hospital,Maharashtra,Baramati,"Bobade Accident Hospital, Baramati",413102
819,Bodyline Hospitals (A Unit Of Kidneyline Healthcare Pvt Ltd),Gujarat,Ahmedabad,"Opp. Annapurna Hall, Near Dev Status, New Vikas Gruh Road, Paldi, Ahmedabad.",380007
820,Bollineni Heart Centre Pvt Ltd,Andhra Pradesh,Eastgodavari,"#77-7-77/1,Seelam Nookaraju Complex Road,Katari Gardens,Rajahmundry",533103
821,Bollineni Hospitals (A Unit Of Krishna Institute Of Medical Sciences Limited),Andhra Pradesh,Rajamundry,"#77-7-77/1, Seelam Nookaraju Complex Katari Gardens,",533103
822,Bollineni Ramanaiah Memorial Hospital & Pvt Ltd,Andhra Pradesh,Nellore,"Dargamitta,Nellore",524003
823,Bollineni Ramanaiah Memorial Hospitals Pvt. Ltd,Andhra Pradesh,Nellore,"Dargamitta,Nellore",524003
824,Bombay Hospital,Madhya Pradesh,Indore,"Ida - Scheme ,No .94/95Ring Road ,",452010
825,Bombay Hospital & Research Centre,Uttaranchal,Haldwani,"Near Saurabh Hotel,Avas Vikas Road,Near Comfort Inn Saurabh Hotel",263139
826,Bombay Hospital & Research Centre Jabalpur,Madhya Pradesh,Jabalpur,"906-Gol Bazar, Jabalpur, Madhya Pradesh, Shaheed Smarak Ground.",482002
827,Bombay Hospital And Research Centre,Maharashtra,Mumbai,"#12,New Marine Lines,Mumbai",400020
828,Bommidala Cancer Institute,Andhra Pradesh,Guntur,Peda Kakani.,522509
829,Bone And Joint Hospital & Research Centre Pvt Ltd,Rajasthan,Jodhpur,"3, Shyam Nagar, Near Radha Krishna Mandir, Pal Link Road Jodhapur (Rajasthan) India-342003",342003
830,Bopal Eye Care Centre,Gujarat,Ahmedabad,"Off-Bs-22To25, B Wing, 2Nd Floor, Ahmedabad, Amrapali Mall, Bopal City Gold Theatre",380058
831,Bopal Multispeciality Hospital Pvt Ltd,Gujarat,Ahmedabad,"1St First Floor,Abhinandan Complex, Opp-Inductotherm, Bopal , Ahmedabad",380058
832,Boppana Super Speciality Hospital,Andhra Pradesh,Vijayawada,"Machilipatnam Road, Poranki, Vijayawada, Andhra Pradesh.",521137
833,Bora Ent Hospital,Maharashtra,Pune,"#2/4,Neeta Park Air Port Road,Yerwada",411006
834,Bora Hospital,Maharashtra,Pune,"#589, Ganesh Peth,Dhor Galli",411002
835,Brahm Shakti Hospital,Delhi,Delhi,"U-1/78, Budh Vihar, Phase-1, Main Kanjhawala Road, Delhi-110086",110086
836,Brahm Shakti Sanjivani Hospital,Haryana,Jhajjar,Opp:Telephe Exchangedist Jharjjar,124507
837,Brahma Nursing Home,Karnataka,Karwar,"Nadangadda, Karwar.",581304
838,Brahmaputra Diagnostics & Hospital Ltd,Assam,Dibrugarh,"Bordoloi Avenue,Patian Bazar, Near Circuit House & Assam Medical College, Dibrugarh-786001",786001
839,Brain & Spine Hospital,Gujarat,Ahmedabad,"Blue Star Complex,Near Under Bridge,Income Tax,Navrangpur",380014
840,Breach Candy Hospital,Maharashtra,Mumbai,60-A Bhulabhai Desai Road,400026
841,Brij Medical Center,Uttar Pradesh,Ghaziabad,"Kk 54, Kavi Nagar,Ghaziabad (Up)",201002
842,Brij Medical Centre Pvt Ltd,Uttar Pradesh,Kanpur,"# 94, E-Block, Near Panbi Police Station.",208020
843,Brijlal Hospital & Research Centre Pvt Ltd,Uttarakhand,Nainital,"Anandi Tower,Nainital Road",263139
844,Brijmohan Taori Memorial Hospital,Maharashtra,Nagpur,"Mo-1, Silver Palace, Dhantoli,Nagpur-440012",440012
845,Bristlecone Hospitals Private Limited,Andhra Pradesh,Hyderabad,"3-4-136/A,Street #6 Barkatpurbarkhatpura Branch",500027
846,Brookefield Hospital (A Unit Of Sanjeevini Healthcare),Karnataka,Kundalahalli,"#521, 522, Vijaylakshmi Square, Itpl Main Road, Kundalahalli, Bangalore-560037Kundalahalli",560037
847,Brrighton Kavita Hospital,Haryana,Faridabad,"5,Sector-29,Opp Huda Market, Faridabad , Haryana",121008
848,Brs Hospital Pvt.Ltd,Tamilnadu,Chennai,No.28. Cathedral Garden Roadcathedral Gardens Road,600034
849,Brundavan Nursing Home,Andhra Pradesh,Machlipatanam,"# 24/588- Railway Station Road, Rajavari Centre.",521001
850,Brws Hospital,West Bengal,Garia,"Kendua Main Road,",700084
851,Bses Mg Hospital,Maharashtra,Mumbai,"Sv Road, Andheri (W), Opp Andheri Rly Stn, Maharashtra",400058
852,Bsr Ent Nursing Home,Andhra Pradesh,Hyderabad,"Sd Road,Karancentre",500003
853,Burute Hospital,Maharashtra,Bhosari,"Near Rupee Co-Op Bank,Opp Pune-Nashik Highway",411039
854,Burute Hospital,Maharashtra,Pune,"B,2-3,Laxmi Classic Poona Alandi Road, Mohanwadi Near Vishrantwadi,Yerwada",411006
855,C.A.Hospital,Kerala,Aluva,"#339/340/341/15,Deson,Kumnnumpuram,Aluva",683103
856,C.F. Sheth Memorial Hospital,Gujarat,Bharuch,"Shalimar Complex, Station Road",392001
857,C.K. Hospital,Tamilnadu,Erode,"# 41, Balasubbarayalu Streeterode",638001
858,C.K.Memorial Kapoor,Haryana,Faridabad,"3B/8A,Nit,Nh-3,Dav College Road",121001
859,C.R.Reddy Hospital,Andhra Pradesh,Nellore,"13/264,Hospital Road,Gudur",524101
860,C.S.I. Hospital,Karnataka,Chikkaballapur,"C.S.I. Hospital Road,Kolar.",562101
861,C.S.I. Kalyani General Hospital,Tamilnadu,Chennai,"15, Dr Radhakrishnan Salai, Mylapore, Chennai-600004, Next To City Centre",600004
862,C.S.I. Lombard Memorial Hospital,Karnataka,Udupi,Mission Hospital Road,576101
863,C.S.I. Rainy Multi-Speciality Hospital,Tamilnadu,Chennai,"#45, G.A. Road Chennai",600021
864,C.S.I. Redfern Memorial Hospital,Karnataka,Hassan,"Race Course Road, P.O Box No.127.",573201
865,C.S.M Nursing Home,Tamilnadu,Chennai,"# 18, Rukmani Street,West Mambalam",600033
866,C.V.R Hospital,Andhra Pradesh,Guntur,"H No:10-1-7,1St Lane,Sambasivapet,",522001
867,Calcutta Lions Netra Niketan (Unit Of Lions Club Of Calcutta Trust),West Bengal,Kolkata,"1/2/A/2,Uday Sankar Sarani, Golf Green, Near Golf Green Door Darshan Kendra,South 24 Parganas",700095
868,Calibre Medical Centre (Cmc),Andhra Pradesh,Hyderabad,"1-11-240/2D, Shyamlal Buildings Begumpet",500016
869,Canara Health Care Limited,Karnataka,Kumta,"Baggon Road,",581343
870,Capitol Nursing Home Pvt Ltd,West Bengal,Kolkata,"288/2 Ap C Road,(Ps Narkeldanga)(P S Narkeldanga)",700009
871,Cardinal Gracious Memorial Hospital Trust,Maharashtra,Mumbai,"Sandor, Bangli Naka, Vasai West, Thane - 401201",401202
872,Care And Cure Hospital,West Bengal,Kolkata,"Surendra Nath Road, Nabapally,Barasat Dt,24Parg North,West Bengalbarasatdist 24 Parg(N)",700126
873,Care Hospital,Andhra Pradesh,Hyderabad,"No.6-3-248/1/1A, Road No.01, Banjara Hills, Hyderabad-500034",500034
874,Care Hospitals,Andhra Pradesh,Secunderabad,"Near Clocl Tower,Adjacent Laneto Westely Church, Market Stre",500003
875,Care Hospitals (A Unit Of Quality Care India Limited).,Andhra Pradesh,Hyderabad,"Exhibition Road Hyderabad-500001, Near Mazam Jahi Market",500001
876,Career Institute Of Medical Sciences(Cims),Madhya Pradesh,Bhopal,"Career College Campus,Govindpura, Bhelgovindpura, Bhel, Bhopal.",462023
877,Carewell Heart & Super Speciality Hospital,Punjab,Amritsar,"Model Town, G-T. Road,Near Raiway Station,Amritsar",143001
878,Carewell Hospital,Rajasthan,Jaipur,"#471, Adarsh Nagar.",302004
879,Carewell Hospital & Research Centre,Kerala,Kasaragod,"Nullipady, Kasargod,Kerala - 671 121",671121
880,Carmel Hospital,Kerala,Ernakulam,"Asokapuram,P.O",683101
881,Cauvery Hospital,Karnataka,Mysore,"# 756, New Kantharaje Urs Roadsaraswathipuram Mysore",570009
882,Cauvery Hospital,Karnataka,Mysore,"Terission College Road,Bannur Road,Shidharthnagar",570011
883,Cauvery Orthopaedic Centre,Karnataka,Bangalore,"#408,20Th Main,W.O.C.Road,1St Block,Rajajinagar",560010
884,Cauvery Trust Hospital,Tamilnadu,Chennai,"No.36,Ponnankinaru Street,Villivakkam,",600049
885,Ccmk Hospital,Kerala,Trichur,"Ccmk Village,Vellikulam Road,Chalakudy",680307
886,Cdr Medical Centre,Karnataka,Bangalore,"Jayanagar, B'Lore",560011
887,Central Avenue Critical Care Hospital & Iccu,Maharashtra,Nagpur,"Mahalaxmi Complex, Central Avenue Roaddarodkar Square, Central Avenu",440002
888,Central Hospital,Delhi,Delhi,"A-142/1, Ganesh Nagar P.O,Tilak Nagartilak Nagar, New Delhi-110018.",110018
889,Central Hospital,Uttar Pradesh,Aligarh,"Masoodabad Crossing,G.T. Road, Aligarh-202001.",202001
890,Centre For Knee Surgery,Gujarat,Baroda,"101/3,Akashganga Complex,Race Couse Circle",390007
891,Centre For Sight,Delhi,Delhi,"B-5/24, Oppsite Deer Park Safdarjung Enclave,",110016
892,Centre For Sight (A Unit Of New Delhi Centrre For Sight Pvt Ltd),Punjab,Mohali,"#35,Phase-7,",160061
893,Centre For Sight (Agra),Uttar Pradesh,Agra,"116, Delhi Gate, Agra. U.P",282003
894,Centre For Sight (Gurgaon),Haryana,Gurgaon,"Sco Complex-317, Sec-29, Gurgaon",122002
895,Centre For Sight (Hisar),Haryana,Hissar,"Centre For Sight At Gayatri Eye Care Institute,1Model Town, Jindal Chowk, Hissarhisar",125001
896,Centre For Sight (Jammu),Jammu & Kashmir,Jammu,"228, Bc Road, Rehari Chungi, Jammu.",180001
897,Centre For Sight (Jodhpur),Rajasthan,Jodhpur,"At Ram Rishi Laser Centre, 562, 7Thc Road, Sardarpura, Near Satsang Bhawan.",342001
898,Centre For Sight (Ludhiana),Punjab,Ludhiana,"1St Floor, Sandhu Tower,Bxx-3369, Ferozpur Road,",141001
899,Centre For Sight (Moradabad),Uttar Pradesh,Moradabad,"At Vivekanand Hospital &Research Centre, Kanth Road, Moradabad",244001
900,Centre For Sight (Preet Vihar),Delhi,New Delhi,"F-19 Vikas Marg,Preet Vihar,Nr Preet Vihar Metro Station,Delhipreet Vihar",110092
901,Centre For Sight (Rajouri),Delhi,Delhi,"J-12/30, Rajouri Garden, New Delhi",110027
902,Centre For Sight (Rohini),Delhi,Delhi,"304-309, Ring Road Mall, Sector-3, Rohini,",110085
903,Centre For Sight (Roopnagar),Delhi,Delhi,"1/2. Roop Nagar, New Delhi,",110007
904,Centre For Sight-Chandigarh,Punjab,Chandigarh,"Sco 833-834, Sector -22-A Chandigarh, Punjab",160022
905,Centre For Sight-Dwarka,Delhi,New Delhi,"Plot No-20, Dwarka Sector 12 A, Opposite Bal Bharti School, Dwarka, New Delhi",110097
906,Centre For Sight-Faridabad,Haryana,Faridabad,"At-Sunflag Hospital, Sector 16-A, Faridabad, Haryana",121001
907,Centre For Sight-Indore,Madhya Pradesh,Scheme,"Plot No. 124, Sector-Ab, Scheme:-54, Indore, Madhya Pradesh",452010
908,Centre For Sight-Patiala,Punjab,Patiala,"Dr. Saronwala Complex, Jagdish Ashram Road, Near Rajinder Hospital, Patiala, Punjab.",147001
909,Century Hospital,Kerala,Alleppey,Mulakuzha P.O,689505
910,Cfs Netralaya Pvt Ltd Meerut (Centre For Sight),Uttar Pradesh,Meerut,"E K Road, Opp:Nas College, Meerutmeerut",250001
911,Cfs Netralaya Pvt. Ltd. (A Unit Of New Delhi Centre For Sight Pvt Ltd),Uttar Pradesh,Meerut,"#194/15,Opp Adwaysworkshop,Delhi Road,",250001
912,Ch. Chhaju Ram Hospital (Aunit Of Holy Touch Healthcare Pvt Ltd),Delhi,Delhi,"Wz-1, Om Viha, Uttam Nagar Main Najafgarh Road, New Delhi -110059",110059
913,Chaddha Children Hospital & Nursing Home,Delhi,Delhi,"No.121,Guru Harkishan Nagar,Paschim Vihar,",110063
914,Chahal Hospital,Punjab,Bhatinda,"Bibiwala Road,Bathinda",151001
915,Chaitanya Ent Hospital,Kerala,Cochin,"38/685A, Sahodaran Ayyappan Road, Cochin-682016",682016
916,Chaitanya Eye Hospital,Andhra Pradesh,Vijayawada,Tikkle Road Mogalrajpuram,520010
917,Chaitanya Eye Hospital & Research Instt,Kerala,Cochin,"Trichandur, Ernakulam,Ernakulam",682012
918,Chaitanya Hospital,Punjab,Chandigarh,Site No. 1&2 Sector 44/C Chandigarh-160044Chandigarh,160044
919,Chaitanya Hospital,Karnataka,Bangalore,"No. 80, 3Rd Cross,P & T Colony,R.T.Nagarr.T. Nagar,Bangalore-560036.",560032
920,Chaitanya Hospital,Maharashtra,Pune,"Bhagirathi Nagar, Warje Malwadi.",411052
921,Chaitanya Hospital,Maharashtra,Pune,"Near Chinchwadgaon Police Chowky,Chapekar Chowk,Chinchwad,",411033
922,Chaitanya Hospital,Maharashtra,Pune,"A/P-Koregaon Bhima, Tal. Shirur, (Pune), Maharashtra",412216
923,Chaitanya Medical Centre,Karnataka,Bangalore,"# 771/24, Khb , Asector, Yelahanka, Bangalore, Karnataka",560064
924,Chaitanya Nursing Home,Maharashtra,Thane,"Poona Link Road, Kalyan East, Thane",421306
925,Chaithanya Eye Hospital & Research Institute,Kerala,Cochin,"Ravipuram Road, Ravipuram, Kochi-682016, Eranakulam",682016
926,Chaithanya Eye Hospital & Research Institute,Kerala,Trivandrum,"M.G. Road, Kesavadasapuram, Trivandrum, Kerala-695004",695004
927,Chaithanya Multispeciality Hospital,Andhra Pradesh,Hyderabad,"Plot No:357&358, Prashanthnagar,Vanasthalipuram, Near Panama Godowns, Hyderabad-500070",500070
928,Chaitra Hospital,Karnataka,Mysore,"# 16/84, 15Th Cross, Basaweshwara Blockk.R. Nagar, Basavaswara Block,",571602
929,Chakrabarthy Medical Centre,Maharashtra,Ahmednagar,"Opp: Gurudwara Nagar, Near Aurangabad Road,Ahmednagar-414001",414001
930,Chakrabarti Eye Care Centre,Kerala,Trivandrum,"No.102, Kochulloor, Near Lerala Water Authority Office, Trivandram-695011",695011
931,Chakravarty Nursing Home,Haryana,Panchkula,"# 207, Sector-10, Panchkula,Haryana-134113",134113
932,Chalasani Hospital,Andhra Pradesh,Guntur,"12-12-94/A,Old Club Road,Kothapeta",522001
933,Chalasani Hospitals Pvt. Ltd.,Andhra Pradesh,Vizag,"50-53-4, Gurudwaralane, Seethammadhara, Visakhapatnam-530013, Beside A.P.E.P.D.L.L Corporate Office",530013
934,Challa Eye Care Centre,Andhra Pradesh,Hyderabad,"8-2-268/R/9-P,Sagar Society Main Road,Road # 2,Banjara Hills",500016
935,Challa Hospital,Andhra Pradesh,Hyderabad,"7-1-71/A/1, Dharam Karan Road, Ameerpet, Hyderabad-500016",500016
936,Chandak Nursing Home,Maharashtra,Nagpur,"Supermarket Sita Building,Nagpur-440012.",440012
937,Chandan Hospital & Icu,Gujarat,Baroda,"Navarang Talkies Compound, Raopura, Baroda-390001",390001
938,Chandana Hospital,Karnataka,Bangalore,"#54, 4Th Cross, 4Th Main, Ngefnrupathunganagar, Nagarbhavi,",560072
939,Chandini Hospital,Karnataka,Shimoga,"Chamarajpet,Sagarshivamogga",577401
940,Chandna Medical Centre,Haryana,Faridabad,"85 & 52, Sector Iba, Near New Subzi Mandi.",121002
941,Chandni Hospital,Rajasthan,Kota,"Kshitij Map 23, Mahavir Nagar.",324005
942,Chandni Hospital,Uttar Pradesh,Kanpur,"9/60, Arya Nagar.",208002
943,Chandra Bhushan Hosptial,Rajasthan,Jodhpur,"Opposite Mahamandir Railway Station, Mandore Road",342006
944,Chandra Hospital,Tamilnadu,Madurai,"# 10, Pillayarpalayam Road",625001
945,Chandra Laxmi Hospital,Uttar Pradesh,Ghaziabad,"Sector-4, Plot # 337, Vaishali",201010
946,Chandra Mohan'S Nursing Home,Andhra Pradesh,Madanapalle,"14-2A,C.T.M. Road,Beside Icici Bank Madanapalle",517325
947,Chandra Mother & Eye Care,Uttar Pradesh,Lucknow,"4/43,Vivek Khand,Gomti Nagar",226010
948,Chandrakala Hospital And Institute Of Medical Research,Karnataka,Mysore,"Plot A,Kalidasa Road,Jayalakshmipuram",570012
949,Chandraleela Hospital,Delhi,Delhi,"P13, Vijay Vihar, Uttam Nagar. New Delhi-59Uttam Nagar",110059
950,Chandralok Hospital,Uttar Pradesh,Bareilly,Pilibhit Bypass Road Barelly U P 243006,243006
951,Chandralok Hospital,Maharashtra,Pune,"Chaitraban Apt.,Chandrika Society,Bibawewadi Road",411037
952,Chandramani Hospital,Gujarat,Ahmedabad,"Girdhar Nagar, Shahibag",380004
953,Chandramathy Amma Memorial Hospital,Kerala,Trichur,"Olarikkara Pullazhi Post, Thirssur, Kerala",680012
954,Chandravati Child & Maternity Hospital,Haryana,Faridabad,"House # 1177, Sector-19, Opp Sai Baba Mandir",121002
955,Chandulal Chandrakar Memorial Hospital,Chattisgarh,Bhilai,"G.E. Road, Nehmnagar, Bhilak C.G,",490020
956,Channan Devi Memorial Hospital,Haryana,Rohtak,"Plot No 952, Ward No 23, Lal Chand Colony Chwok, Near Durga Mandir Rohtak-124001, Haryana",124507
957,Chanre Rheumatology & Immunology Centre & Research (A Unit Of Chanre Darsha Health Care Pvt Ltd),Karnataka,Bangalore,"#149,15Th Main,3D Stage,4Th Block,Nhc Layout,Basaveshwar Nagar,",560079
958,Chaphekar Iccu & Diabetes Hospital,Maharashtra,Mumbai,"Ashok Nagar, Ambadi Road(Opp) Bhaji Market, Vasai Road",401202
959,Charak Clinic Nursing Home,Maharashtra,Mumbai,"Laud Mansion,4Th Floor, 21,M Karvi Roadm.Karve Road,Opp.Charni Road",400004
960,Charak Clinics,Punjab,Mohali,"Scf-85,First Floor,Phase #7,",160062
961,Charak Hospital & Research Centre,Madhya Pradesh,Bhopal,"Old Navbharat Press Building, Jehengirabad.",462008
962,Charak Hospital Pvt Ltd,Madhya Pradesh,Indore,"Ranisati Gate, Yeshwant Niwas Road.Y.N.Road,",452003
963,Charaka Hospital,Karnataka,Tumkur,"No-5, Opp-Neps, 2Nd Main, Shankarapuram, B.H Road, Tumkur-572102",572102
964,Charithasri Hospitals Ltd,Andhra Pradesh,Vijayawada,"Ramachandra Rao Road,29/6/8-1,Vijayawada.Ramachandrarao Road",520002
965,Charnock Hospitals Pvt Ltd,West Bengal,North24Paraganas,"Megacity Approach Road,24 Oarganas.",700059
966,Charring Cross Nursing Home (P) Ltd.,West Bengal,Kolkata,"2C. Motilal Basak Lane, Kolkata-700054, Kankurgachi, Subash Mala Parkkolkata",700054
967,Chattisgarh Hosptial Medical Research Centre & Institute,Chattisgarh,Raipur,"Central Avenue, Choubey Colony.",492001
968,Chaudhary Eye Centre & Laser Vision,Delhi,Delhi,"4802/24, Bharat Ram Road,Darya Ganj,24, Darya Ganj,",110002
969,Chaudhry Medical & Maternity Hospital,Haryana,Karnal,"# 1543-44, Sector-13, Urban Estate Opp Pani Ki Tanki, Karnal-132001",132001
970,Chawla Nursing Home & Hospital,Punjab,Mohali,"# 1&2, Phase 7, Mohali-160055.",160055
971,Chaya Hospital ( A Unit Of Chaya Healthcare Pvt Ltd),Karnataka,Bangalore,"# 6C-335, 4Th Main, 6Th Cross, Ombr Layout, Bhuvanagiri.",560043
972,Chazhikattu Hospitals Pvt Ltd,Kerala,Idukki,"Ix/139 A,River View Road,Thodupuzha, Idukki",685584
973,Cheema Medical Complex,Punjab,Mohali,"Phase-4,Near Telephone Exchange, Mohalinear Telephone Exchange",160059
974,Chelsa Medical Care (P) Ltd.,Kerala,Trivandrum,"Kungallummoodu,Karamanatrivadrum",695002
975,Chennai Eye Care Hospital,Tamilnadu,Chennai,"#6,12Th Cross Street,Dhandeeswaran Nagar,Velachery",600042
976,Chennai Krishna Hospital,Tamilnadu,Chennai,"No.297, Gst Road, Near Mit Flyover, Chromepet, Chennai, Tamilnadu",600044
977,Chennai Meenakshi Multispeciality Hospital Ltd.,Tamilnadu,Chennai,"# 148, Luz Church Road, Malapore, Chennai, Tamilnadu.",600004
978,Chetana Hospital,Karnataka,Kadur,M.T. Road Puttur,577548
979,Chethana Hospital,Karnataka,Puttur,Shree Mahamaya Temple Road Dakshina Kannada,574201
980,Chettinad Super Speciality Hospital (Cssh)-(A Unit Of Rajah Muthiah Charitable And Educational Trust),Tamilnadu,Chennai,"I.T. Highway,Kelambakkam",603103
981,Chhabda Hospital,Maharashtra,Aurangabad,"Plot No 5-6-19, New Osmanpura, Opp Sant Eknath Rang Mandir",431005
982,Chhabra Hospital Panipat,Haryana,Panipat,"A-1,Narain Singh Park,Assandh Road",132103
983,Chikitsa Nursing Home,Delhi,Delhi,"B-4, Saket",110017
984,Child Jesus Hospital,Tamilnadu,Trichy,"P Box No 17, Cantonment, Tiruchirappalli, Trichy-620001Near To All India Radio Station",620001
985,Childerns Hospital,Haryana,Panchkula,"Swastik Vihar Pharse - 1 Mdc, Sector - 5 Panchkula-134109",134109
986,Childrens Hospital,Andhra Pradesh,Guntur,"6-11-58/59, 11Th Lane, 2Nd Cross, Arundelpet.",522002
987,Chincholi Eye Hospital,Karnataka,Gulbarga,Old Jewargi Cross Road,585102
988,Chinmay Nursing Home,Maharashtra,Mumbai,"#103/104,Odyssey-A,Bhakti Park,Wadala East",400037
989,Chinmaya Mission Hospital,Karnataka,Bangalore,"1/1,C M H Road,Indiranagar",560038
990,Chinmaya Narayana Hrudayalaya,Karnataka,Bangalore,Cmh Road Indiranagar 2Nd Stage Chinmaya Missin Hospital,560038
991,Chinmayi Hospital,Karnataka,Bangalore,"#34,Brindavan Layout,Subramanyapura Main Road",560061
992,Chinmayi Hospital,Karnataka,Kundapur,"Church Road, Kundapura, Udupi-576201",576201
993,Chintamani Hospital,Maharashtra,Pune,"Plot # 53,Jedhe Nagar,Bibwewadi",411037
994,Chintan Orthopaedic Hospital,Gujarat,Ahmedabad,"#16,Anuradha Society,Jivraj Park Cross Road",380051
995,Chirag Hospital,Haryana,Gurgaon,"Main Bajghera Road,3636/31,Rajindra Park,",122001
996,Chiranjeev Hospital,Maharashtra,Ratnagiri,"Anand Karad Road, Markand,Chiplun, Ratnagiri-415605.",415605
997,Chiranjeevi Hospital,Maharashtra,Mumbai,"101&102,Padmaraj Bldg,Dr.Rajendra Prasad Road,Shivmandir Cross Road,Ramnagar,Dombivali East,Thane",421201
998,Chiranjeevi Hospital & Maternity Home,Karnataka,Bangalore,"16Th 2Nd Main, Sri Manjunatha Temple St, Mysore Bank Colony,",560050
999,Chiranjeevi Maternity Hospital,Karnataka,Bijapur,Divatageri Galli Near Rayar Math,586101
1000,Chiranjiv Hospital & Maternity Home,Haryana,Gurgaon,"Wng,Haily Mandi",122504
1001,Chirashree Nursing Home,Karnataka,Mangalore,"1-33/2 & 1-33/3, Iddya Suratkal",575014
1002,Chirayu Health & Medicare (P) Ltd,Madhya Pradesh,Bhopal,"#6, Malipurle,Behind Sadar Marzil",462001
1003,Chirayu Superspeciality Hospital,Maharashtra,Mumbai,"Ground Floor,Vimal Deep Building,Sarvoday Paraside Complax Behind Balaji Hos Mira Bhy Road,Bhayandar East,Thane",401105
1004,Chitra Hospital,Karnataka,Mysore,"25/1A, Irwin Rdmysore",570001
1005,Chitra Kalyana Raman Nursing Home,Tamilnadu,Salem,"56,A/1,Rajaji Road",636007
1006,Chitrakut Surgical Hospital,Gujarat,Ahmedabad,"734/4888 , Bapunagar ,Near Pattelvadi ,",380024
1007,Chitras Ent Laser Surgery Super Speciality Hospital,Tamilnadu,Chennai,"30C, Cathedral Garden Lane,Nungambakkam.",600034
1008,Chittaragi Hospital,Karnataka,Bagalkot,Bramanand Asram Road Bus Stand Road Rabkavi,587314
1009,Chobe Maternity & Nursing Home,Maharashtra,Aurangabad,"Opp Chetna Nagar,Marathwada",431005
1010,Chopda Medicare & Research Centre Pvt.Ltd,Maharashtra,Nashik,"Patil Lane - 1,Nashik, Maharashtra",422005
1011,Chopda Medicare & Research Centre Pvt Ltd,Maharashtra,Nashik,Patil Lane No 1 Canada Corner Nashik 422005,422005
1012,Chord Road Hospital Pvt Ltd,Karnataka,Bangalore,100 Bima Jyoti Lic Colony2Nd Stage West Of Chord Road,560079
1013,Choudhari Hospital,Karnataka,Bijapur,"Shikharakhana Road, Near Lic Office",586104
1014,Choudhary Ent Maternity & General Health Care Centre,Punjab,Amritsar,"Near State Bank Of India Katra-Khazana,",143001
1015,Chougala Hospital,Karnataka,Belgaum,"Shanti Nagar,Hallyal Road,Athani,",591304
1016,Christian Hospital,Tamilnadu,Madurai,"Vaigai Dam Road, Periyakulam,Perivakulam- 625 601",625601
1017,Christian Medical College & Hospital,Punjab,Ludhiana,"Brown Road,",141008
1018,Christian Mission Hospital,Kerala,Pathanamthitta,Pandalam,689501
1019,Christos Hospital,Kerala,Alleppey,"Xxiv/228,Kayamlukam,Kpac Junction",690502
1020,Christudas Orthopaedic Speciality Hospital,Tamilnadu,Chennai,"#9.Duraiswamy Ngr. I.A.F. Road, Tamilnadu Chennai 59",600059
1021,Ciigma Institute & Medical Sciences Pvt Ltd,Maharashtra,Aurangabad,"#8,Raghuveer Nagar,Jalna Road,Opp Sfs High School",431005
1022,Cims Hospital Private Limited,Gujarat,Ahmedabad,Nr Shukan Mall Off Science City Road Sola Shukan Mall,380060
1023,Citi Hospital,Karnataka,Bangalore,"25/91,West Of Chord Road, 20Th Main, 2Nd Block, Rajajinagar, Bangalore",560010
1024,Citi Hospital,Karnataka,Bellary,"No.52/A, Dam Road,Hospet, Bellary-583203",583203
1025,Citi Hospital,Madhya Pradesh,Bhopal,"#115-Zone Ii,Maharana Pratap Nagar,",462011
1026,City Cancer Centre,Andhra Pradesh,Hyderabad,"No.33-25-33,Ch.Venkata Krishnaiah Street,Suryaraopet,Krishna,Vijayawada",520002
1027,City Care Hospital,Haryana,Rewari,"Sco No 24 Huda Shopping Complex, Sector 4 Rewari Haryana",123401
1028,City Central Hospital Pvt Ltd,Karnataka,Davangere,"# 17, Akkamahadevi Road,Near Chethana Hotel",577002
1029,City Clinic,Karnataka,Hubli,"Madhavpur, Hubli",580020
1030,City Eye Foundation,Kerala,Kozhicode,"17/255,Pavamani Road,",673001
1031,City Heart Hospital ( Unit Of Rajgarh Polyclinic & Nursing Home ),Assam,Guwahati,"Rajgarh Road, Gawahati, Kamrup, Assam",781007
1032,City Hospital,Haryana,Rohtak,"1533/21, Chunnipura, Saini School Road, Rohtak, Haryana, Opp. Saini Girls High School.",124001
1033,City Hospital,Rajasthan,Sriganganagar,"#45,Model Colony,Sri Ganganagar",335001
1034,City Hospital,Uttaranchal,Hardwar,Super Complex Ranipur More Haridwaruk,249407
1035,City Hospital,Karnataka,Shimoga,"R.M.R. Road, Durgigudi,Shimoga-577201.",577201
1036,City Hospital,Tamilnadu,Erode,"#87,Rkv Road,Near Chennai Silks",638003
1037,City Hospital,Tamilnadu,Tuticorin,"106, G/8A, Palai Main Road (W)Millerpuram Corner,",628008
1038,City Hospital,Maharashtra,Kolhapur,"1708 E, 8Th Lane, Rajarampuri",416008
1039,City Hospital,Maharashtra,Solapur,"Old Employment Chowk,'B'Wing City Pride Building Vip Road",413001
1040,City Hospital & Diagnostic Centre,Karnataka,Udupi,"Vidyaranya Mag,Behind Alankar Theatreudupi",576101
1041,City Hospital & Maternity Home,Haryana,Faridabad,"Sector-16, Faridabad,Haryana-121002",121002
1042,City Hospital & Research Centre,Assam,Tinsukia,"A.T. Road, Near Timkonia Dukmari, Timsukia, Assam-786125",786125
1043,City Hospital & Research Centre,Madhya Pradesh,Gwalior,"Jail Road, Bohadapur, Gwalior, Madhya Pradesh.",474012
1044,City Hospital Pavalam Trauma Centre,Tamilnadu,Dindigul,4/361 Gandhiji Nagar Trichy Road,624005
1045,City Hospital Pvt Ltd,Kerala,Cochin,"Post Box #3525,M.G Road Ernakulam",682035
1046,City Hospital Research & Diagnostic Centre,Karnataka,Mangalore,"Pound Garden,Kadri,Dakshina Kannada,",575003
1047,City Hospital& Trauma Centre,Uttar Pradesh,Lucknow,"C-1, Cinder Dump Complex.Opp Krishna Cinema Hall",226005
1048,City Medical Centre,Karnataka,Davangere,"Badila Guthu Complex1St Main, M.C.C.B Block",577004
1049,Citycare Hospital & Research Centre Pvt Ltd,Maharashtra,Nashik,"Near Nasardi Bridge,Nasik Poona Road,Dwarka",422001
1050,Clear Vision Eye Centre,Maharashtra,Mumbai,"1-A, Ashoka, 15 Sv Road, St.Theresa'S Convent Schoolsantacruz(W)",400054
1051,Clear Vision Eye Hospital,Andhra Pradesh,Himayatnagar,"3-6-272, Nvk Towers, Opp Telugu Academy Himayathnagar, Hyderabad-500029Quarters Road, Hyderabad.",500029
1052,Clinic Nallam,Tamilnadu,Pondicherry,"86,Eswaran Koil Street",605001
1053,Cloudnine (A Venture Of Kids Clinic Pvt Ltd,Karnataka,Bangalore,"#1533,9Th Main, Jayanagar 3Rd Block",560011
1054,Cloudnine (Kids Clinic India Pvt. Ltd.),Karnataka,Bangalore,"115, Kodi Halli, Old Airport Road, Bangalore-560017",560017
1055,Cnr Nursing Home,Andhra Pradesh,Kadapa,"4/6,Gandhi Road,Proddatur",516360
1056,Coastal Cardiac And Maternity Centre,Andhra Pradesh,Rajahmundry,Danavaipeta Park Beside Hdfc Bank East Godavari,533103
1057,Coastal Care Hospital,Andhra Pradesh,Guntur,"8Th, Line, Old Club Road, Gunturivarithota, Kothapet, Guntur-522001, Opp Bus Stand, Old Club Road",522001
1058,Cochin Hospital,Kerala,Cochin,Mg Road,682016
1059,Coimbatore Bone And Joint Foundation Pvt Ltd,Tamilnadu,Coimbatore,"#1091-Mettupalayam Road,North Coimbatore Bus Stop,R.S.Puram",641002
1060,Coimbatore Kidney Centre,Tamilnadu,Coimbatore,"738-B, Puliakulam Road, Coimbatore, Tamilnadu",641045
1061,Colaco Hospital,Karnataka,Mangalore,"Lower Bendore Main Road,Dakshina Kannada,",575002
1062,Columbia Asia Hospital,West Bengal,Kolkata,"Ib,193,Sector. 3, Salt Lake, Kolkata-700091",700091
1063,Columbia Asia Hospital,Karnataka,Mysore,"85-86,Bangalore Mysore Ring Road, Junction, Bannimantap A Layout, Siddiqui Nagar",570015
1064,Columbia Asia Hospital Palamvihar,Haryana,Gurgaon,"Block F, Near Gol Chakkar, Sector 23 , Palam Vihar, Gurgaon-122017",122017
1065,Columbia Asia Hospital Pvt Ltd,Karnataka,Bangalore,"Kirloskar Business Park, Bellary Road, Hebbal, Bangalore-560024",560024
1066,Columbia Asia Hospital Pvt Ltd-Patiala,Punjab,Patiala,"#22, Bhupindra Road, Patiala-147001",147001
1067,Columbia Asia Hospital Pvt.Ltd-Ghaziabad,Uttar Pradesh,Ghaziabad,"Nh-24, Hapur Road, Opp.Bhameta Village Near Land Craft Golf Links, Ghaziabad, Uttar Praesh",201001
1068,Columbia Asia Referral Hospital,Karnataka,Bangalore,"#26/1, 80Feet Dr.Rajkumar Road,Malleshwaran West, Bangalore-560055",560055
1069,Columbia Hospital And Research Centre-Nagpur,Maharashtra,Nagpur,"Dr. N.B. Khare Marg, Dhantoli, Nagpur, Maharashtra",440012
1070,Combined Medical Institute (P) Ltd,Uttaranchal,Dehradun,"54, Harawar Road Dehradun-248001",248001
1071,Comtrust Eye Hospital,Kerala,Kozhicode,"Mini Bye Pass Road, Puthiyara (Post), Calicut-673004, Kerala State",673004
1072,Convenient Hospital Ltd,Madhya Pradesh,Indore,"Ab Road, Near Lig Tringnee, Indorenear L.I.G. Square,",452001
1073,Cosmo Medicals Pvt Ltd,Punjab,Mohali,"#8,Phase Viii Sector-62,",160062
1074,Cosmo Multispeciality Hospital,Karnataka,Bangalore,"#64,1St Cross,Kalidasa Circle,Srinagar",560050
1075,Cosmopolitan Hospitals (P) Ltd,Kerala,Trivandrum,"Maurinanjapalam,Pattom",695004
1076,Cradle Calicut Maternity Care Pvt Ltd,Kerala,Calicut,"Nh-17, By Pass Road Airport By Pass Road",673014
1077,Crescent Hospitals,Tamilnadu,Madurai,"37/1,Sivaganga Road,Opp To Aavin Milk Project",625020
1078,Crescent India Medical Education Trust'S Inamdar Hospital,Maharashtra,Pune,"Survey, No:- 15, Fatimanagar, Pune",411040
1079,Crescent Nursing Home & Iccu,Maharashtra,Nagpur,"Near Lokmat Square, Dhantoli,1St Lane,1St Lane, Nagpur-440012.",440012
1080,Criticare Hospital For Children,Maharashtra,Nashik,"Citycentre,Opp Sindhi Colony,Jail Road",422101
1081,Criticare Superspeciality Hospital,Maharashtra,Thane,"Between Hotel Royal Challenge & Cadbury Co.Ltd, E.E. Highway, Thane West.",400602
1082,Crystal Eye Centre,Maharashtra,Mumbai,"101, Crystal Residency Dockyard Road, Mazagaon",400010
1083,Csi Hospital,Tamilnadu,Kanchipuram,No.21.Hospital Roadkanchipuram,631502
1084,Csi-Church Of South India Hospital,Karnataka,Bangalore,"Post Beg No #4, Hazarat Kambal Posh Roadposh Road,",560051
1085,Csr Nursing Home,Tamilnadu,Coimbatore,"# 272, 7Th Street Extension,Gandhipuram, Coimbatore-641012",641012
1086,Cumballa Hill Hospital,Maharashtra,Mumbai,"93-95, August Kranti Marg",400038
1087,Cure Emergency Hospital,Andhra Pradesh,Khammam,"11-2-91/A, Balajinagar, N.S.T Road, Khammam, Andhrapradesh-507001Balajinagar",507001
1088,Cure Hospitals,Andhra Pradesh,Secunderabad,"Plot # 3,Ganesh Nagar Colony,Opp Smt Sarojini Pulla Reddy House,Hasmathpet Road,Bowenpallh",500011
1089,Cure Well Hospital,Rajasthan,Jaipur,"1/53-Sfs,Mansarower",302020
1090,Cure Well Hospital,Andhra Pradesh,Warangal,"15-1-46, Srinivasa Colony Opp Mgm Hospital",506007
1091,Cure-Well Nursing Home,Orissa,Jagatsinghapur,Town Hall Road,754103
1092,Curewell Hospital Pvt. Ltd.,Madhya Pradesh,Indore,"19/1-C,New Palasia, Indore",452001
1093,Curie City Cancer Centre,Andhra Pradesh,Krishna,"Padavalarevu,Gunadala,Krishna",520004
1094,Curie Manavata Cancer Centre,Maharashtra,Nashik,"Mumbai Naka,Opp Mahamarg Bus Stand",422004
1095,Cuttack Nursing Home,Orissa,Cuttack,"Markamal Patna,Mangalabag,",753001
1096,Cygnus Maharaja Arrarsain Hospital,Haryana,Ranipat,"Opp Devi Mandir, Panipat ,Haryana",132103
1097,D D Eye Institute,Rajasthan,Kota,#631 Dadabari Main Road Near Cad Circle,324009
1098,D'Souza Hospital,Maharashtra,Mumbai,"Ramedi Dhowali Vasai, Thane-401201",401201
1099,D'Souza Nursing Home,Himachal Pradesh,Nahan,"Opp. Min Gate Ranital Gardens,Nahannahan",173001
1100,D.G. Hospital (Devambika Nursing Home),Karnataka,Bangalore,"274 / 275, Mkp Road, Padmanabhanagar, Puttalingaiah Road, Bangalore-560070",560070
1101,D.N. Hospital,Haryana,Panipat,"Khanna Road, Krishanpura, Panipat, Haryana",132103
1102,D.S.K. Hospital,Tamilnadu,Coimbatore,"# 19, Kadirnagar, Kangeyam Road, Tirupur.",641604
1103,D.S.Kothari Hospital,Maharashtra,Mumbai,"Kamala Kutir, Kastirba Chowk,C.P.Tank",400004
1104,Dada Laser Eye Institute,Maharashtra,Pune,"Chaudhari Plaza 1St Floor# 185, M.G. Road,Campchaudhari Plaza, Pune-411001.",411001
1105,Daddenavar Hospital & Research Centre,Karnataka,Bagalkot,Ward # 10 & Rural Police Stationnear Rural Police Station,587101
1106,Dafodil Nursing Home(P),West Bengal,Kolkata,"# 276 Canal Street,",700048
1107,Dahiya Hospital,Haryana,Sonepat,"Near Iti Chowk, Old Dc Road, Sonepat, Haryana",131001
1108,Dake Hospital,Maharashtra,Uran,"1St Floor, Suwellar Complex, Uran Karanja Road",400702
1109,Daksh Hospital,Rajasthan,Alwar,"#397,Gandhi Nagar,Sch,No 8,Alwar(Rajashtan-301001)",301001
1110,Dakshata Hospital Pvt Ltd,Karnataka,Belgaum,"3375,Subalakshmi Building,College Road",590001
1111,Dange Hospital,Karnataka,Hassan,"M.G. Road, Near Adichundhangiri School, Hassan-573201",573201
1112,Darekar Hospital,Maharashtra,Pune,"Perne Phata,Poona Nagar Road,Tal Haveli",411007
1113,Darshan Eye Care Clinic (Savjiani Medico (P) Ltd),Gujarat,Rajkot,"2Nd Floor, Parishram Plaza,Mangla Main Roadmangla Main Road, Rajkot.",360002
1114,Darshan Surgical Centre Llp,Tamilnadu,Chennai,"Block T-80, New No-24 5Th Main Road",600040
1115,Dashputra Hospital,Maharashtra,Nagpur,"358, Anandnager, Opp, Sankkara Police Station Nagpur-440009",440009
1116,Datar Nursing Home,Maharashtra,Mumbai,"33/34, Morumal Mansion, Opp Bachani Nagar,Off Daftary Road, Malad East.",400097
1117,Datt Maternity & Surgical Home,Maharashtra,Mumbai,"23, Jawahar Nagar 1Stfloor,S.V. Road",400062
1118,Datta Prasad Orthopaedic Nursing Home,Andhra Pradesh,Guntur,"D.No#14-8-38.Netajinagar, 2Nd Lane,Ponnur.",522124
1119,Dattatreya Nursing Home,Maharashtra,Mumbai,"Opp Bhandhutva Chs, Datta Mandir Road,Near Vakola Bridge,Santacruz East",400055
1120,Davangere Heart Hospital (Unit Of Suraj Hospital Pvt Ltd),Karnataka,Davangere,"3639,M.C.Colony 9Th Main",577004
1121,Dave Orthopaedic Hospital,Gujarat,Ahmedabad,"Opp S.T. Bus Station,",365601
1122,Dawar Eye Hospital,Rajasthan,Sriganganagar,"Meera Chowk,Jawahar Nagar,Sri Gnga Nagar",335001
1123,Daya Hospital,Delhi,Delhi,"A-4/16,Paschim Vihar,New Delhi",110063
1124,Dayanand Medical College Hospital,Punjab,Ludhiana,"Civil Lines, Tagore Nagar, Ludhiana-141001",141001
1125,Dayanand Nursing Home,Uttar Pradesh,Meerut,"47/L-4, Jawahar Quarters Begum Bridge Road",250001
1126,Dbr & Sk Super Speciality Hospital,Andhra Pradesh,Chittoor,"No.18-1-505,Mosque Road,Opp.V.V.Mahal Theatre,Chitoor,",517501
1127,Ddmm Heart Instituti,Gujarat,Nadiad,"Mission Road,Nadiad",387002
1128,Debipur Netralaya Pvt Ltd,West Bengal,Burdwan,"Near Kristi Cinema Hall,Memari, Burdwan",713146
1129,Deccan Hospital,Karnataka,Kolar,"Opp Ksrtc Depot, Ashwini Extension, Chintamani, Chikballapura-563125",563125
1130,Deccan Medical Centre Pvt Ltd,Karnataka,Belgaum,"Goods Shed Road, Near Railway Station",590001
1131,Deeksha Hospital,Karnataka,Bangalore,#387/347 Bb Road Nehrunagar Yelahanka Old Town Next To Post Office,560064
1132,Deendayal Memorial Hospital,Maharashtra,Pune,"# 926, .C. Road, Shivajinagar, Adjucent To Tukaram Pauka Chowk.",411004
1133,Deep Hospital,Punjab,Patiala,Opp Punjabi University,147002
1134,Deep Hospital,Madhya Pradesh,Bhopal,"Hig-33, Shivajinagar",462016
1135,Deep Hospital & Research Centre,Rajasthan,Jaipur,"Khatipura Road,Satya Nagar Mode Jhotwara,",302012
1136,Deep Intensive And Critical Care,Gujarat,Baroda,"B/4, Maharani Shool, Near Sursagar, Raopura",390001
1137,Deep Medical Center,Haryana,Faridabad,"Site No 1, Sector - 16A Mkt Road,Faridabad",121002
1138,Deep Nursing Home,Punjab,Barnala,College Road,148101
1139,Deep Nursing Home,Punjab,Barnala,Collage Road Barnala-148101,
1140,Deep Nursing Home,Maharashtra,Thane,"Kalyan Road, Ashok Nagar, Bhiwandi, Thane.",421302
1141,Deep Nursing Home & Children Hospital,Punjab,Ludhiana,"481-R,Model Town",141002
1142,Deepa Hospital,Karnataka,Bangalore,"# 27,Old Madra Road K.R. Puram Ext Bangalore",560036
1143,Deepa Hospital (Tsunami Project Only),Kerala,Alleppey,"Karuvatta Post, Haripad, Alappuzha",690517
1144,Deepa Kannan Hospital,Tamilnadu,Karur,"# 33,Muthunagar,Karur",639002
1145,Deepa Nursing Home,Karnataka,Chickmangalur,"Chikmanglur, Karnataka",577101
1146,Deepa Nursing Home,Kerala,Kasaragod,"Kunnummal,Kanhangad",671315
1147,Deepak Hospital,Karnataka,Bangalore,"259, 33Rd Cross, Kanakapura Main Road, 7Th Block, Jayanagar-560082",560082
1148,Deepak Hospital,Maharashtra,Mumbai,"Holy Complex,Near Sai Petrol Pump,Opp White House Hotel,Mira Bhayandar Mira Road East,Thane",401107
1149,Deepak Memorial & Medical Research Centre,Delhi,Delhi,"5, Institutional Area, Vikas Marg Ex Ii,Vikas Marg Ex 11,",110092
1150,Deepak Nursing Home,Orissa,Bhubaneswar,"Plot No 84, (Dc)Saheed Nagar,",751007
1151,Deepam Eye Hospital,Tamilnadu,Chennai,"#72,Medavakkam,Tank Road,Kilpauk",600010
1152,Deepam Hospital,Tamilnadu,Chennai,"#327, Muthurangam Road,Tambaram(West),Kanchipuram,West Tambaram",600045
1153,Deepam Hospital,Tamilnadu,Coimbatore,"687, Trichy Road.",641045
1154,Deepam Hospital,Tamilnadu,Valapady,"#128,Ayya Gounder Street,Opp Police Station",636115
1155,Deepam Hospital Ltd,Tamilnadu,Chennai,"30, Ayyasamy Street,",600044
1156,Deepam Hospital Ltd,Tamilnadu,Chennai,"107-A, Gst Road, Chennai",600044
1157,Deepam Hosptial (Tsunami Project Only),Kerala,Kayamkulam,"Kayamkulam, Kanaalloor North,Pattoli Market Post.",690502
1158,Deepan Hospital,Delhi,Delhi,"Khasra 139-140, Najafgarh Raod, Kapashera.",110037
1159,Deepashri Hospital (A Unit Of Cadms Trust),Karnataka,"Bangalore,",#86. 2Nd Main 16Th Cross Malagala Nagarabhavi 2Nd Stage Bangalore560072,560072
1160,Deepika Eye Care Hospital,Tamilnadu,Kanchipuram,"1564/4D,Chengalpet Road",602105
1161,Deepjyoti Hospital Pvt Ltd,Maharashtra,Nashik,"Crown Complex,Sharanpur Road, Opp Rajiv Gandhi Bhavan",422002
1162,Deepshikha Orthopaedic Hospital,Rajasthan,Kota,"P-Square, 1-C-19 (Sfs) Talwandi",324005
1163,Deepthi Hospital,Tamilnadu,Namakkal,"31-A,Mohanur Road",637001
1164,Deepthi Nursing Home,Andhra Pradesh,Nellore,"Sbi Railway Road, Brindavanam, Psr",524001
1165,Delhi Heart And Lung Institute,Delhi,Delhi,#3Mm Ii Panchkuian Road New Road-110055New Delhi,110055
1166,Delhi Hospital & Maternity Home,Haryana,Jind,"# 1151, Urban Estate, Jind,Haryana-126102",126102
1167,Delhi Hospital & Nursing Home,Haryana,Jhajjar,"Rohtak Road,Bahadur Garh.",124507
1168,Delhi Hospital & Temple Nursing Home,Delhi,Delhi,"#1, Ansari Road, Darya Ganj,New Delhi-110002.",110002
1169,Delhi Nursing Home,Punjab,Bhatinda,Bibiwala Road,151001
1170,Deodhar Eye Hospital,Maharashtra,Pune,"#39/25, Erandawane, Karve Rd,",411004
1171,Deokate Hospital,Maharashtra,Baramati,Indapur Road,413102
1172,Deoki Hospital,Uttar Pradesh,Lucknow,"Ahibaranpur,Sitapur Road,",226020
1173,Deshmukh Hospital,Maharashtra,Parbhani,"#17, Dr.Hedgewar Marg,Station Road,",431401
1174,Deshpande Hospital,Maharashtra,Ahmednagar,"Anandi Bazar, Patwardhan Chowk,Anandi Bazar",414001
1175,Deshpande Hospital,Maharashtra,Pune,"Parekh B Towers, Biaroba Nala, Fatimanagar",411013
1176,Desun Hospital & Heart Institute,West Bengal,Kolkata,"Em By Pass,Kasba Gol Park",700107
1177,Dev Eye Hospital,Gujarat,Ahmedabad,"#405,Pratham Mangal Complex,Opp Vasna Telephone Exchange,Vasna",380007
1178,Dev Hospital Dev Seva Trust,Gujarat,Ahmedabad,"Kesariyaji Bus Stop, Vasna Jivraj Mehta Hosp. Road,Vasna Ahmedabad-380007",380007
1179,Dev Nandini Hospital,Uttar Pradesh,Hapur,"Garh Road,Hapur",245101
1180,Dev Nursing Home,Maharashtra,Mumbai,"Shilpa Appartment, Ist Floor, Shankar Ghanekar Marg, Off Gokhale Road S), Dadar W-400028Shankar Ghanekar Marg,",400028
1181,Deva Matha Hospital,Kerala,Ernakulam,"Koothattukulam, Ernakulam Distkerala",686662
1182,Devadhar Nursing Home,Maharashtra,Pune,"S.No. 901, Near Tapovan Mandir,Pimpri.",411017
1183,Devadoss Multispeciality Hospital,Tamilnadu,Madurai,"#75/1,Alagarkovil Main Roadsurveyor Colony,",625007
1184,Devaki Cancer Institute,Tamilnadu,Madurai,"#26,Theni Main Road,Arasaradi,Near Bypass Road",625016
1185,Devaki Hospital,Tamilnadu,Sivagangai,"No.6/1,Kamban Mani Mandapam Road,Karaikudi,",630001
1186,Devam Orthopaedic Hospital,Gujarat,Ahmedabad,"215-216, Sarvopari Mall, Near Bhuyangdev Cross Road, Sola Road, Ghatlodia, Ahmedabad- 380061, Gujarat",380061
1187,Devamatha Hospital,Kerala,Koratty,# 365/15 Old Nh Near Post Offic Located Near To Christian Pilgrim Centre St.Mary'S Forane Church Koratty,680308
1188,Devasya Kidney And Multispeciality Hospital,Gujarat,Ahmedabad,"3, Panchal Nagar Society, Opp Mehasana Society, Nava Vadaj Road,Vadaj",380013
1189,Devi Laxmi Hospital,Chattisgarh,Raipur,"B-19/5,Ring Road,Tagore Nagar",492001
1190,Devi Nursing Home,Kerala,Malapuram,"Nilambur, Malappuram Dt.,Kerala-679329",679329
1191,Devi Priya Hospital,Tamilnadu,Madurai,"12/54, A2G, T.B. Road,Usilampattiusilampatti, Madurai-625532.",625532
1192,Devi Priya Life Care Hospital,Andhra Pradesh,Vizag,"58-1-433/2,Main Road,Santhinagar,Nad Post",530009
1193,Devi Super Speciality Eye Hospital Private Limited,Karnataka,Bangalore,"#434, 18Th Main, 80 Feet Road, 6Th Block Bus Depot. Block,Koramangala. Bangalore-560095",560095
1194,Devishiv Hospital,Uttar Pradesh,Lucknow,"B-328-B, Sector B, Mahanagar",226006
1195,Devpushp Hospital,Gujarat,Baroda,"Devpushp Complex,Tulsidham Cross Road,Manjalpur",390011
1196,Devyane Hospital,Rajasthan,Alwar,"Kalakuan, Manumarg, Infront Of Bsnl Colony.",301001
1197,Dewang Nursing Home (P) Ltd,Maharashtra,Thane,"Bhaveshwar Market, 2Nd Floor,M.G. Road, Ghatkopar (E).",400077
1198,Dewas Hospital And Research Centre,Madhya Pradesh,Dewas,"231,A.B. Road,Dewas",455001
1199,Dey'S Hospital,Uttar Pradesh,Kanpur,"491, Kazi Khera, Lal Bangla, Kanpur, Uttar Pradesh-208007, Near Poonam Talkies",208007
1200,Dhama Clinic & Medical Centre,Uttar Pradesh,Noida,"C-46, Sector-34, Noida",201307
1201,Dhamdhere Hospital,Maharashtra,Pune,"Sanaswadi Poona Nagar Road,Talshirur",412208
1202,Dhami Eye Care Hospital,Punjab,Ludhiana,# 82-B Kitchlu Nagar Ludhiana - 141001,141001
1203,Dhanshree Hospital,Maharashtra,Pune,"Gp-66, G Block, Midc,Chinchwad, Pune-411019.",411019
1204,Dhanush Hospital,Karnataka,Bagalkot,Mahaveer Road Bagalkot,587313
1205,Dhanush Hospital,Karnataka,Kolar,"Behind Municipal Park,N.R.Extension,Chintamani,",563125
1206,Dhanush Hospital,Karnataka,Nagarbhavi,"#63, Byraveshwara Nagar 2Nd Main, Nagarbhavi Main Raod, Bangalore-560072",560072
1207,Dhanvantari Fracture Orthopaedic & Arthroscopy Cntre,Maharashtra,Kolhapur,"# 1717,B 7Th Lane, Rajaranpuri, 7Th Lane, Maharashtra",416008
1208,Dhanvantari Hospital,Gujarat,Baroda,"2Nd Floor,Nivedanam Complex,Soma Talaw Cross Road,Dabhoi Ring Road",390019
1209,Dhanvantari Hospital (P) Ltd.,Maharashtra,Badlapur,"Thakkar Palza, Kulgaon (E), Badlapur, Thane - 421503Badlapur, Thane - 421 503.",421503
1210,Dhanvantri Children'S Hospital & Nicu,Maharashtra,Thane,2Nd Floor Mohan Heritage Building Opp Tmc Office Panchpakhadi,400602
1211,Dhanvantri Hospital & Research Centre,Rajasthan,Jaipur,"67/56-Manasarower,Heerapath",302020
1212,Dhanvantri Jeevan Rekha Ltd,Uttar Pradesh,Meerut,Umber One Near Gol Market,250003
1213,Dhanwantari Hospital,Maharashtra,Pune,"Krishna Prasad Society Plot # 42, Rambaug Colony, Paud Road",411038
1214,Dhanwantari Medical,Maharashtra,Pune,"Tilak Road, Pradhikaran, Maharashtra, Pune",411044
1215,Dhanwantari Tomer Hospital,Uttar Pradesh,Bareilly,"35-A-2/11, Rampur Bagh.",243001
1216,Dhanwantary Hospital & Iccu,Maharashtra,Mumbai,"545, Netaji Subhash Road, Mulund West, Mumbai",400080
1217,Dhanwantri Hospital & Research Centre,Rajasthan,Jaipur,"New Sagar Road, Mansarovar Jaipur ,",302020
1218,Dharam Hospital,Punjab,Chandigarh,"#2040, Sector-15C, Near Traffic Lights",160015
1219,Dharan Hospital,Tamilnadu,Salem,"14,Seela Naicken Patti By Pass. On A National Highway Salem",636201
1220,Dharani Nursing Home,Andhra Pradesh,Nalgonda,"Doctirs Colony, Miryalaguda.",508207
1221,Dharma Orthopedic Center,Maharashtra,Pune,"D Building Om Mahavir Society,Irani Market Yerwada",411006
1222,Dharmashila Cancer Hospital & Research Centre,Delhi,Delhi,"Dharmashila Marg,Vasundhara Enclavevasundhara Enclave, Delhi - 96",110096
1223,Dhawan Hospital,Haryana,Panchkula,"Plot-1, Sector-7, Panchkula, Haryana",134109
1224,Dhiviya Nursing Home,Tamilnadu,Erode,"306, Chennimalai Road, Kangayam",638701
1225,Dhruva Eye Hospital & Laser Centre,Gujarat,Rajkot,Rashtriya Shala Main Road,360002
1226,Dhulabapu Kokare Memorial Hospital,Maharashtra,Pune,"Malavarchi Devi, Ring Road,Baramati",413102
1227,Dhulipalla Hospital Guntur,Andhra Pradesh,Guntur,"12-25-179,Kothapet, Opp Sivalayam, Guntur-522001",522001
1228,Dhvani Ent Hosptial,Gujarat,Vadodara,Near G.P.O. Raopura.,390001
1229,Dhwani General Hospital,Gujarat,Ahmedabad,"#28,New Kamlesh Society,Odhav",382215
1230,Diagram Health Care,Karnataka,Bangalore,"4, R.M.V.Extensionmekhri Circle",560080
1231,Dilkusha Nursing Home Pvt Ltd,West Bengal,Kolkata,94A Dilkusha Street Kolkata,700017
1232,Dinesh Nursing Home,Tamilnadu,Madurai,"No.6-1-33,West Street,Viswanathapuram, Madurai-625014",625014
1233,Dipa Children Hospital&Micu,Gujarat,Ahmedabad,"Bhagwati Complex, Mahalaxmi Paladi.",380007
1234,Disha Eye Hospital & Research Centre Pvt Ltd,West Bengal,Kolkata,"88(63A) Ghosh Para Road, Barrackpore",700120
1235,Disha Eye Hospital (Hoogly) Pvt Ltd,West Bengal,Hooghly,"14.G.T. Road, Shedraphully, West Bengal",712223
1236,Dispur Polyclinic & Nursing Home,Assam,Guwahati,Ganeshguri Chariali,781001
1237,Divakars Global Hospitals,Karnataka,Bangalore,"No.220, 9Th Cross, J.P.Nagar 2Nd Phase, Bangalore-560078",560078
1238,Divine Heart Hospital & Resesarch Centre,Uttar Pradesh,Lucknow,"Virajkhand-5,Gomti Nagar",226010
1239,Divine Medical Centre,Kerala,Trichur,Wadakkancherywadakkanchery,680590
1240,Divine Multispeciality Hospital & Research Centre,Maharashtra,Navi Mumbai,"Plot No 21, Near Ekta Society, Sector 6, Ghansoli, Navi Mumbai-400701",400701
1241,Divine Nursing Home Pvt Ltd,West Bengal,Kolkata,"11A, Abinash Chandra Banerjee Lane,Beliaghata.",700010
1242,Divine Speciality Hospital,Karnataka,Bangalore,"#110,6H Main,I.T.I Layout,Benson Town Post",560046
1243,Divya Eye Clinic,Maharashtra,Pune,"F-2,Shakun Apts, Above Bank Of Maharashtra ,Sanghavinagar,Aunoh,Pune",411007
1244,Divya Prabha Eye Hospital,Kerala,Trivandrum,"Padinjatil Lane,Kumarapuram",695011
1245,Divya Prastha Hospital,Delhi,Delhi,"Rz-37,Main Road,Palam Colony,",110045
1246,Divyadrishti Eye Hosptial,Karnataka,Bangalore,"996/22, Service Road,Rpc Layout, Bangalore",560040
1247,Dm Eye Care Delhi Pvt Ltd (Aster),Haryana,Faridabad,5E/08 Railway Road Near Neelam Chowk,121001
1248,Dm Wims ( Wayanad Institute Of Medical Secience),Kerala,Wayanad,"Naseera Nagar, Meppadi, Wayanda, Kerala",673577
1249,Doctor House,Gujarat,Mehsana,"Jail Road, Mehsana",384002
1250,Doctor Rex'S Hospital,Tamilnadu,Chennai,"# 37, Millers Road, Kilpauk",600010
1251,Dogra Nursing Home & Endoscopy Centre,Punjab,Chandigarh,House No -8 Sector-19 A,160019
1252,Dolphin Children Hospital,Andhra Pradesh,Hyderabad,"17-87,Road #1,Kamalanagar,Chaitanyapuri,Dilsukhnagar",500060
1253,Domjur Nursing Home,West Bengal,Howrah,Attached To Hazra Building,711405
1254,Doshi Nursing Home,Maharashtra,Mumbai,"Amrut Kunj, Near Rly Station, Mg Road, Ghatkopar East-400077",400077
1255,Down Town Hospital Ltd,Assam,Guwahati,"G.S. Road, Dispur",781005
1256,Dr A.M Vaze,Maharashtra,Mumbai,Shivaji Park,400028
1257,Dr Agarwal'S Eye Hospital Ltd,Tamilnadu,Chennai,"19, Cathedral Road",600086
1258,Dr Agarwal'S Eye Hospital Ltd (Nanganallur),Tamilnadu,Nanganallur,"Ophthalmology Dept Margreet Sydney Hospital No 13, 2Nd Street Nanganallur Chennai-600061",600061
1259,Dr Agarwal'S Healthcare Ltd,Andhra Pradesh,Hyderabad,"18-92/C,D,E, S.S Towers Chaitanyapuri X Road Dilsukhnagar-500060Dilsukhnagar",500060
1260,Dr Agarwal'S Healthcare Ltd,Andhra Pradesh,Secunderabad,"Matarani Sensation 8-1-386, 387-8467 Rastrapati Road Secunderabad-500003",500003
1261,Dr Agarwal'S Healthcare Ltd.,Karnataka,Bangalore,"Kade, Complex No 869, 2Nd Stage, Wcr 3Rd Stage, Basaveshwaranagar",560079
1262,Dr Agarwals Eye Hospital Ltd,Tamilnadu,Chennai,"#107, A Block 3Rd Avenue Anna Nagar Near",600040
1263,Dr Agarwals Eye Hospital Ltd,Tamilnadu,Chennai,"#33,7Th Avenue,Ashok Nagar",600083
1264,Dr Agarwals Eye Hospital Ltd,Tamilnadu,Chennai,"No-6, Duraisamy Street Tdk Towers Tambaram",600045
1265,Dr Agarwals Eye Hospital Ltd,Tamilnadu,Kanchipuram,"#32-B,Indiragandhi Road Opp Taluk Office",631502
1266,Dr Agarwals Eye Hospital Ltd (Dharmapuri),Tamilnadu,Dharmapuri,"136 1St Floor,Nethaji Bye Pass Road",636701
1267,Dr Agarwals Eye Hospital Ltd (Gopalapuram),Tamilnadu,Chennai,Retina Foudation No 31 1St Street Gopalapuram,600086
1268,Dr Agarwals Eye Hospital Ltd (Kumbakonam),Tamilnadu,Kumbakonam,"2/381, Indiranagar,Kumbakonam",612001
1269,Dr Agarwals Eye Hospital Ltd (Periyar Nagar),Tamilnadu,Chennai,"B-63, Siva Elango Salai 70Feet Road, Periyar Nagar",600082
1270,Dr Agarwals Eye Hospital Ltd (Salem),Tamilnadu,Salem,"#114/7,Gandhi Road,Salem",636007
1271,Dr Agarwals Eye Hospital Ltd (Villupuram),Tamilnadu,Villupuram,"#19, Trichy Trunk Road,Near To Villupuram Signal",605602
1272,Dr Andals Lakshmi Fertility Reserch & Laparoscopic Surgical Centre,Andhra Pradesh,Nellore,"16-2-94, Pogathota, Near Raghava Cini Complex, Nellore-524001",524001
1273,Dr Baliga Nursing Home,Maharashtra,Mumbai,"Paras, S.V.Road, Goregaon W-400062Mumbai-400062",400062
1274,Dr Bandal Arogya Hospital,Maharashtra,Thane,"1St Floor, Golden Park, Opp.Navneet Motors, L.B.S. Marg, Thane West",400601
1275,Dr D Y Patil Hospital & Research Centre,Maharashtra,Mumbai,"Sector-5,Nerul",400706
1276,Dr Handral Nursing Home,Karnataka,Ranbennur,"No.14,Rajendra Nagar,",581110
1277,Dr Kamakshi National Hospital,Tamilnadu,Chennai,No 12 Jaffer Serang Streetsecond Line Beach Chennai,600001
1278,Dr Kandoi Ashirwad Hospitals,Maharashtra,Mumbai,Ganesh Ashish Apt Vadavli Section Ambernath(E),421501
1279,Dr Kundan Lal Hospital,Punjab,Sangrur,"Ahmedgarh,",148021
1280,Dr Lankesh Eye Hospital Pvt Ltd,Tamilnadu,Ashok Nagar,No-2 41St Street. 6Th Avenue. Ashok Nagarashok Nagar,600083
1281,Dr Lodaya Hospital,Karnataka,Ranbennur,"Ashwini Nagar,Just Behind Bus Stand,",581110
1282,Dr M Prakash Hospital & Medical Research Centre,Uttar Pradesh,Meerut,Begum Bridge Road Gic Near Meerect,250001
1283,Dr Mahadevappa Eye Laser Hospital,Karnataka,Tumkur,"15Th Cross, S.S. Puram, (Horticulture Office Road) Tumkur-572102",572102
1284,Dr Manoharan Hospital,Tamilnadu,Coimbatore,"No.1210,Thadagam Road,Near To Aavin Milk Company,R.S. Puram,",641002
1285,Dr Nutan Shah Eye Hospital & Advanced Phaco Centre,Gujarat,Baroda,"1, Devdeep Complex, Delux Cross, Nizampura",390002
1286,Dr Pattabhirama Rao (Siromani Hospital),Andhra Pradesh,Kothagudem,"No.4-1-7,Ramnagar,Kothagudem-507101",507101
1287,Dr Rama Sofat Hospital,Punjab,Ludhiana,"No.435,College Road,Adjacent Malwa Girls Khalsa School,",141001
1288,Dr Ramesh Hospital For Piles & Proctology,Karnataka,Mysore,410 Contour Road Gokulam Mysore -570002,570002
1289,Dr Rane Hospital (P) Ltd,Maharashtra,Mumbai,"37,Pestom Sagar, Chembur37, Pestom Sagar, Chembur",400089
1290,Dr Rani Menon'S Eye Clinic,Kerala,Thrissur,"18/470, Civil Lane Road, Chungam, Thrissur Kerala-680004",680004
1291,Dr Sreedhar'S Kidney & Multispeciality Hospital,Andhra Pradesh,Hyderabad,"No.13-6-437/1/L/1,Khaderbagh,Nanal Nagar,",500008
1292,Dr Ysr Memorial Hospital,Andhra Pradesh,Ananthapur,"#12-2-878, 1Cross, Sai Nagar, Anantapur-515001 (A.P.)",515001
1293,Dr. A. Ansari Hospital,Tamilnadu,Nagapattanam,"# 20, Naganathar Sannadhi, Nagapattinam, Tamilnadu",611001
1294,Dr. A. Govindarajan Eye Hospitals,Tamilnadu,Trichy,"No: 6, Officer'S Colony, Puthur Tiruchirapalli-620017Trichy",620017
1295,Dr. Agarwal'S Eye Hospital (Rep By Dr. Agarwal'S Health Care Ltd.),Andhra Pradesh,Hyderabad,"#6-3-712/80 And 81, Punjagutta Colony, Hyderabad, A.P.-500082",500082
1296,Dr. Agarwal'S Eye Hospital (Rep. By Dr. Agarwal'S Health Care Ltd.),Orissa,Cuttack,"Bbc Tower, Link Road Square, Madhupatna, Cuttack-753010",753010
1297,Dr. Ajayan'S Multispeciality Hospital,Maharashtra,Mumbai,"Plot #6, Sector-9, Opposite Rf Naik School Ground, Koparkhairane",400709
1298,Dr. Akbar Eye Hospital,Andhra Pradesh,Ananthapur,#12-3-2 346Th Lane Sai Nagar Ananthapur,515001
1299,Dr. Anji Reddy Multi-Speciality Hospital Pvt Ltd,Andhra Pradesh,Guntur,"16/682, Piduguralla Main Road.",522413
1300,Dr. Arvind Vision Care,Tamilnadu,Chennai,"#61, Reddy Palayam Road, Mogappair West, Chennai, Tamilnadu",600037
1301,Dr. Ashish Dave Eye Hospital,Gujarat,Ahmedabad,"'Aakash' Complex, Station Road, Maninagarahmedabad-380008.",380008
1302,Dr. Ashit Shah Eye Hospital,Gujarat,Ahmedabad,"# 202, Shaival Complex, Opp:Chandanbala Tower, Paldipaldi, Ahmedabad-380007.",380007
1303,Dr. Ashok Mittal Hospital,Rajasthan,Ajmer,"# 249-A,Main Road, Vaishali Nagar.",305006
1304,Dr. Ashok Patil Clinic,Maharashtra,Sangli,"Kinikar Patil Estate, Vishrambag,Sangli",416415
1305,Dr. Atray Eye Hospital,Rajasthan,Udaipur,"19-20, Townhall Link Road, Udaipur, Near Corporation Bank, Rajasthan, Udaipur",313001
1306,Dr. Atul Shah Eye Hospital,Gujarat,Ahmedabad,"3Rd Floor, Narottam Complex,Bhuyangdev Cross Road,Ahmedabad",380061
1307,Dr. Bawaris Nursing Home,Assam,Tinsukia,"Parbatia Road, Tinukin.",786125
1308,Dr. Bedekars Hospital,Maharashtra,Thane,"Shiu-Shakti Anupade, Thane.",400602
1309,Dr. Bhandare Hospital,Goa,Panjim,Fontainhas Panaji Northgoa,403001
1310,Dr. Bidari'S Ashwini Hospital,Karnataka,Bijapur,B.L.D.E. Road,586103
1311,Dr. Bothra'S Hospital,Maharashtra,Mumbai,"Ramkrishna Building,1St Floor, Gadav Naka, Bhandup West",400078
1312,Dr. Caeiro Bicholim Polyclinic Hospital,Goa,Panjim,"Sonarpeth, Bicholim,North-Goa, Goa-403504",403504
1313,Dr. Deepak Hospital,Maharashtra,Ahmednagar,"Savedi Road, Ahmednagar",414003
1314,Dr. Dijesh Shah'S Meru Nursing Home,Gujarat,Bhavnagar,"75 B, Mahila Welfare Society,Chittaranjan Chowk, Vidhyanagar, Bhuvnagar, Gujarat",364002
1315,Dr. Eye Hospital,Maharashtra,Mumbai,"1St Floor, Viral Apts,S V Road,S.V. Road,Anderi West, Mumbai.",400058
1316,Dr. G.C. Hospital,Tamilnadu,Karur,"#30, North Pradakshanam Road, Karur, Tamilnadu.",639001
1317,Dr. G.K. Srivastava Hospital Pvt Ltd,Uttar Pradesh,Bareilly,"13-D, Rampur Garden.",243001
1318,Dr. Gandhi Orthopaedic Hospital,Gujarat,Rajkot,"Vidyanagar Main Road, Sarvoday Sankool.",360002
1319,Dr. Gandhi'S Nursing Home Pvt Ltd,Maharashtra,Mumbai,"101/102/202, Mangamurti Chs, Off.Bole Road, Mumbai-400028",400028
1320,Dr. Gokavi Maternity & General Hospital,Karnataka,Hubli,Karwar Road Hubli,580029
1321,Dr. Govind Gupta Hospital,Rajasthan,Bharatpur,"#135, Krishna Nagar",321001
1322,Dr. Grace George Hospital,Tamilnadu,Chennai,"# 34, Udayavar Koil Street,Thirumizhisai, Poonamalee.",600029
1323,Dr. H.B. Eye Hospital,Gujarat,Surendranagar,"Surendranagar,Near Milan Cinema, Gujarat",363001
1324,Dr. Ithape Hospital,Maharashtra,Sangamner,"New Nagad Road, Sangamner,Ahmednagar, Pune-422605.",422605
1325,Dr. Jacquline Divyananda (Divya Hospital),Tamilnadu,Chennai,"# 20, Medavakkam Main Road, Madipakkam",600091
1326,Dr. Jawaharlal Rohatgi Smarak Netra Chikitsalaya,Uttar Pradesh,Kanpur,"117/52, Sarvodaya Nagar,Near Bhoot Nath Mandhir.",208005
1327,Dr. Jayant Shah Hospital,Gujarat,Nadiad,"Santram Road, Nadiad,Kheda, Gujarat-387001.",387001
1328,Dr. Jayesh C. Gandhi Surgical Hospital,Gujarat,Surendranagar,"Old Junction Road, B/H. Boston Guest House.",363001
1329,Dr. Jeyasekharan Medical Trust,Tamilnadu,Nagercoil,"#1159, K.P. Road, Nagerkoil.",629003
1330,Dr. Jialal Memorial Hospital Pvt Ltd,Uttar Pradesh,Jhansi,"Opp. Medical College, Gate-2",284003
1331,Dr. K.M. Nallaswamy Hospital,Tamilnadu,Erode,"#93, Power House Road,Erode",638001
1332,Dr. Kamra'S Urinary & Surgical Diseases Centre,Uttaranchal,Dehradun,"8, Inder Road,",248001
1333,Dr. Kannure Hospital & Iccu,Maharashtra,Mumbai,F-2 D-2 Sector-9Main Road Vashi,400703
1334,Dr. Kantak'S Hospital,Goa,Margao,Bishop Rebello Road,403601
1335,Dr. Khunger Eye Care & Research Center Pvt. Ltd.,Rajasthan,Ajmer,"#1109, Near Post Office Opp To Pnb Ramganj, Belwar Road, Ajmer ,Rajasthan",305001
1336,Dr. Khunger'S Eye Care Centre,Rajasthan,Ajmer,"Beawar Road, Near Post Office, Ramganj",305001
1337,Dr. Kothari Eye Hospital,Rajasthan,Ajmer,"G-31, Makarwali Road, Ajmer",305006
1338,Dr. Kulkarni Hospital,Maharashtra,Pune,"10A 11 Kalyan Peth,Junnar",410502
1339,Dr. Kumaraswami Health Centre ( A Unit Of Indian Medical Centre),Tamilnadu,Kanyakumari,"N.H. Road # 47, 1/4C,1/4D,1/4E Perumalpuramperumalpuram, Kanyakumari.",629703
1340,Dr. Kunhalu'S Nursing Home,Kerala,Ernakulam,"T.D.Road, Ernakulamernakulam",682011
1341,Dr. Loganathan Orthopaedic Hospital,Tamilnadu,Erode,"606/A, Mettur Main Road, Bhavani,",638301
1342,Dr. M.L.Gupta Memorial Centre,Haryana,Faridabad,"B.P. 5E/4, Railway Road, Nit,Nit - Faridabad,",121001
1343,Dr. Mahesh Rathod Hospital,Gujarat,Rajkot,"1, Sardarnagar, Nr. Astran Chowk, Rajkot",360001
1344,Dr. Malathi Manipal Hospital,Karnataka,Bangalore,"45/1, 45Th Cross, 9Th Block, Jayanagar, Bangalore-560069",560069
1345,Dr. Manish Patankars Nath Hospital,Maharashtra,Mumbai,"101, A-Wing, Golden Havens Apartments, Kolbad Road, Khopat, Thana West-400601",400601
1346,Dr. Manohara Sai Gowda Memorial Hospital,Karnataka,Mulbagal,"Nh-4, Opposite Inspection Bungalow, Mulbagal",563131
1347,Dr. Mehta'S Multispeciality Hospital Pvt Ltd.,Tamilnadu,Chennai,"2 (E), Mc. Nicholas Road, Chennai, Opposite To Chetpet Police Station.",600031
